{"type":"Feature","properties":{},"geometry":{"type":"MultiPolygon","coordinates":[[[[-179.61,71.59],[-178.39,71.54],[-177.44,71.24],[-180,70.99],[-179.61,71.59]]],[[[-179.51,68.92],[-175.27,67.66],[-174.46,66.28],[-173.69,66.44],[-174.61,67.06],[-173.65,67.12],[-171.72,66.95],[-169.64,66.07],[-170.59,65.6],[-171.46,65.83],[-171.04,65.47],[-172.86,65.7],[-172.09,65.48],[-172.7,65.25],[-172.08,65.08],[-173.16,64.76],[-172.22,64.41],[-173.11,64.24],[-175.41,64.77],[-176.04,65.45],[-178.46,65.47],[-178.98,66.05],[-178.68,66.01],[-178.48,66.38],[-179.69,66.18],[-179.26,65.53],[-180,65.07],[-180,68.98],[-179.51,68.92]]],[[[-169.27,63.18],[-169.14,63.21],[-169.29,63.19],[-169.41,63.15],[-169.67,62.95],[-171.85,63.52],[-168.69,63.3],[-168.81,63.17],[-169.27,63.18]]],[[[-165.75,59.93],[-166.18,59.76],[-167.45,60.22],[-166.16,60.44],[-165.75,59.93]]],[[[-163.95,-81.42],[-162.98,-81.27],[-160.41,-81.57],[-163.73,-81.48],[-163.95,-81.42]]],[[[-163.19,54.7],[-164.65,54.39],[-164.96,54.59],[-163.76,55.06],[-163.19,54.7]]],[[[-159.33,-79.53],[-158.95,-79.77],[-164.33,-79.29],[-163.24,-78.71],[-159.33,-79.53]]],[[[-155.15,19.27],[-155.88,19.03],[-155.87,20.26],[-154.83,19.53],[-155.15,19.27]]],[[[-152.42,57.44],[-153.99,56.74],[-153.74,57.13],[-154.1,56.96],[-153.96,57.12],[-154.24,57.15],[-154.49,57.11],[-154.1,57.11],[-154.3,56.86],[-154.81,57.35],[-154.22,57.68],[-154.02,57.65],[-154.11,57.54],[-153.94,57.53],[-153.89,57.41],[-153.75,57.3],[-153.63,57.27],[-153.92,57.81],[-153.18,57.71],[-153.28,58.01],[-152.33,57.83],[-152.42,57.44]]],[[[-135.84,57.45],[-136.36,58.22],[-134.92,58.03],[-135.89,57.99],[-134.82,57.49],[-135.81,57.76],[-135.84,57.45]]],[[[-134.67,56.54],[-134.67,56.17],[-135.67,57.36],[-135.38,57.55],[-134.91,57.34],[-134.67,56.54]]],[[[-134.61,57.13],[-134.31,57.39],[-134.95,58.41],[-134.18,58.16],[-133.79,57.59],[-134.31,58.1],[-133.86,57.36],[-134.61,57.13]]],[[[-132.62,53.31],[-133.07,54.17],[-132.16,54.01],[-132.48,53.58],[-131.66,54.17],[-131.98,53.26],[-132.62,53.31]]],[[[-132,54.72],[-133.21,55.28],[-132.91,55.63],[-133.38,55.63],[-133.14,55.88],[-133.61,56.35],[-132.16,55.5],[-132.52,55.63],[-132.68,55.46],[-131.99,55.27],[-132,54.72]]],[[[-130.1,55.83],[-130.17,55.75],[-130.15,55.55],[-129.99,55.28],[-130.69,54.76],[-131.01,55.01],[-130.72,55.08],[-130.46,55.33],[-131.06,55.13],[-130.61,55.3],[-131.01,56.11],[-132.17,55.59],[-131.49,56.22],[-133.55,57.18],[-133.47,57.28],[-133.25,57.28],[-133.06,57.33],[-133.04,57.37],[-133.65,57.7],[-133.57,57.72],[-133.05,57.5],[-133,57.52],[-133.55,57.92],[-133.12,57.86],[-134.06,58.07],[-133.77,58.52],[-134.76,58.38],[-135.35,59.47],[-135.09,58.24],[-135.91,58.38],[-135.77,58.9],[-137.06,59.06],[-136.03,58.39],[-136.66,58.22],[-139.86,59.55],[-139.47,59.99],[-139.29,59.58],[-138.9,59.81],[-139.52,60.05],[-140.32,59.7],[-141.38,60.14],[-141.67,59.96],[-144.25,60.03],[-144.94,60.31],[-144.62,60.72],[-145.94,60.46],[-145.63,60.68],[-146.04,60.8],[-146.48,60.69],[-146.7,60.74],[-146.09,60.84],[-146.75,60.96],[-146.28,61.12],[-147.87,60.84],[-147.73,61.28],[-148.7,60.79],[-148.2,60.63],[-148.49,60.58],[-148.69,60.46],[-147.94,60.46],[-148.44,59.96],[-149.41,60.12],[-150.96,59.2],[-151.98,59.28],[-150.99,59.78],[-151.87,59.75],[-151.4,60.74],[-149.03,60.85],[-150.07,61.16],[-149.43,61.51],[-153.08,60.3],[-152.58,60.07],[-154.26,59.15],[-153.26,58.86],[-156.55,56.98],[-158.43,56.44],[-158.12,56.24],[-158.43,56.01],[-161.28,55.35],[-161.62,55.61],[-162,55.09],[-162.65,55.3],[-162.56,54.96],[-163.34,54.81],[-163.33,55.12],[-161.8,55.89],[-160.24,55.78],[-160.58,55.99],[-160.19,56.39],[-157.41,57.49],[-157.61,58.11],[-157.14,58.17],[-157.56,58.36],[-156.94,58.74],[-156.78,59.16],[-158.2,58.61],[-158.5,58.99],[-158.17,59.01],[-158.03,58.88],[-158,58.91],[-158.14,59.04],[-158.54,59.18],[-158.88,58.4],[-160.35,59.07],[-161.71,58.56],[-162.18,58.64],[-161.57,59.12],[-161.97,59.13],[-161.71,59.5],[-162.46,60.3],[-161.88,60.7],[-162.7,60.27],[-162.53,60],[-164.1,59.83],[-165.43,60.55],[-163.56,60.91],[-165.17,60.94],[-164.77,61.11],[-165.36,61.21],[-165.21,61.27],[-165.16,61.42],[-165.08,61.42],[-164.97,61.49],[-164.84,61.5],[-164.72,61.63],[-165.09,61.48],[-165.29,61.33],[-165.23,61.27],[-165.39,61.22],[-165.37,61.07],[-166.2,61.59],[-165.13,62.52],[-164.58,62.43],[-164.88,62.84],[-164.42,63.21],[-161.06,63.57],[-160.97,64.25],[-161.54,64.4],[-160.79,64.73],[-162.78,64.34],[-166.19,64.59],[-166.96,65.18],[-166.03,65.24],[-167.4,65.4],[-168.14,65.67],[-164.27,66.6],[-163.74,66.6],[-163.63,66.57],[-164.19,66.19],[-163.68,66.08],[-161.02,66.19],[-161.9,66.27],[-162.48,66.96],[-161.63,66.46],[-160.23,66.41],[-161.5,66.54],[-161.9,66.74],[-161.53,66.99],[-162.36,67.17],[-163.72,67.11],[-164.15,67.62],[-166.83,68.35],[-166.22,68.89],[-163.62,69.12],[-161.91,70.32],[-159.95,70.6],[-160.2,70.48],[-159.77,70.2],[-159.29,70.54],[-160.13,70.63],[-156.47,71.41],[-155.57,71.15],[-156.19,70.92],[-155.98,70.76],[-155.09,71.15],[-151.22,70.38],[-143.24,70.12],[-135.15,68.66],[-135.97,69.22],[-129.41,70.12],[-131.98,69.54],[-133.49,68.84],[-133.21,68.72],[-132.92,68.69],[-133.39,68.85],[-127.52,70.22],[-127.99,70.59],[-125.45,69.32],[-124.63,69.99],[-125.21,70],[-124.41,70.16],[-124.51,69.74],[-124.03,69.68],[-124.42,69.37],[-121.64,69.79],[-113.91,68.4],[-115.54,67.92],[-115.12,67.8],[-110.06,68.01],[-107.99,67.28],[-108.62,67.15],[-107.24,66.35],[-107.8,66.77],[-107.09,66.83],[-108.01,67.71],[-107.88,68.09],[-106.44,68.15],[-105.65,68.64],[-108.81,68.26],[-108.35,68.6],[-106.2,68.94],[-104.48,68.03],[-102.22,67.69],[-98.36,67.79],[-98.58,68.1],[-98.08,67.76],[-97.59,67.6],[-97.06,67.68],[-98.72,68.37],[-97.86,68.54],[-96.4,68.32],[-96.76,68.02],[-95.9,68.3],[-96.47,67.48],[-95.33,67.01],[-96.46,67.06],[-95.82,66.59],[-96.09,66.93],[-95.22,66.97],[-95.48,68.06],[-93.37,68.64],[-93.83,69.07],[-94.64,68.76],[-93.45,69.49],[-96.57,70.23],[-95.79,70.54],[-96.6,70.79],[-96.51,71.28],[-95.54,71.3],[-95.91,71.61],[-94.55,72],[-91.51,70.16],[-92.37,70.24],[-91.94,70.02],[-92.92,69.67],[-90.31,69.45],[-91.45,69.36],[-90.44,68.88],[-90.48,68.34],[-89.2,69.28],[-88.02,68.81],[-87.79,68.33],[-88.37,67.98],[-87.52,67.12],[-86.5,67.38],[-85.67,68.73],[-84.53,69.02],[-85.47,69.28],[-85.56,69.86],[-82.25,69.64],[-83.29,69.54],[-81.27,69.1],[-82.06,68.88],[-81.27,68.64],[-82.65,68.43],[-81.24,67.46],[-81.5,67],[-83.37,66.35],[-83.92,66.89],[-84.14,66.71],[-84.37,66.97],[-84.91,67.06],[-85.21,66.92],[-83.71,66.19],[-86.78,66.52],[-85.86,66.16],[-87.38,65.33],[-89.69,65.95],[-91.5,65.95],[-86.94,65.14],[-88.11,64.14],[-90.13,64.13],[-89.81,63.95],[-90.28,64.01],[-89.97,63.81],[-90.22,63.61],[-93.78,64.19],[-90.63,63.06],[-92.45,62.82],[-91.89,62.62],[-92.62,62.62],[-92.47,62.15],[-92.74,62.29],[-93.25,62.37],[-92.76,62.22],[-93.62,61.95],[-93.26,61.74],[-94.8,60.5],[-95,59.05],[-94.2,58.81],[-94.36,58.22],[-94.18,58.78],[-93.16,58.74],[-92.42,57.35],[-92.86,56.91],[-90.59,57.23],[-85.13,55.35],[-85.39,55.11],[-85.42,55],[-82.25,55.12],[-82.3,52.97],[-81.48,52.3],[-81.82,52.26],[-81.88,52.19],[-80.44,51.48],[-81.01,51.04],[-80.14,51.3],[-79.33,50.73],[-79.75,51.2],[-79.32,51.67],[-79.01,51.47],[-78.95,51.22],[-78.85,51.16],[-79.04,51.77],[-78.41,52.25],[-78.98,53.03],[-79.05,54.18],[-79.77,54.66],[-77.78,55.27],[-76.54,56.32],[-76.81,57.68],[-78.57,58.64],[-77.78,59.71],[-77.57,59.69],[-77.44,59.58],[-77.31,59.57],[-77.19,60.06],[-77.74,60.4],[-77.42,60.55],[-77.83,60.64],[-77.51,60.84],[-78.2,60.79],[-77.48,61.54],[-78.15,62.3],[-77.47,62.59],[-74.56,62.11],[-73.67,62.48],[-72,61.68],[-72.09,61.61],[-72.24,61.62],[-72.3,61.57],[-71.58,61.61],[-71.89,61.43],[-71.57,61.16],[-69.54,61.08],[-69.63,60.08],[-71.04,60.07],[-69.56,59.86],[-69.45,58.9],[-70.25,58.77],[-68.77,58.92],[-68.19,58.55],[-69.37,57.77],[-68.01,58.58],[-68.13,58.08],[-67.74,58.47],[-67.71,57.93],[-66.38,58.85],[-66.05,58.33],[-65.98,58.92],[-65.32,59.05],[-65.56,59.49],[-64.98,59.38],[-65.5,59.79],[-64.98,59.76],[-64.86,60.36],[-64.46,60.29],[-64.83,59.99],[-64.38,60.13],[-63.73,59.52],[-64.06,59.39],[-63.38,59.28],[-63.44,59.12],[-63.97,59.08],[-64.04,59.02],[-62.84,58.69],[-63.59,58.31],[-62.56,58.48],[-63.34,57.98],[-62.46,58.18],[-62.67,57.94],[-61.89,57.64],[-62.53,57.5],[-61.36,57.09],[-61.69,56.62],[-62.5,56.78],[-62.09,56.84],[-62.59,56.8],[-60.68,55.56],[-60.33,55.78],[-60.69,55],[-59.78,55.33],[-59.43,55.14],[-59.74,54.97],[-59.92,54.74],[-59.16,55.24],[-59.38,54.98],[-57.35,54.59],[-59.58,54.05],[-58.37,54.23],[-60.14,53.53],[-60.88,53.83],[-60.92,53.71],[-60.05,53.5],[-60.42,53.27],[-58.04,54.24],[-57.16,53.95],[-57.38,53.43],[-56.48,53.79],[-55.75,53.26],[-56.17,53.04],[-55.75,52.62],[-56.5,52.6],[-55.65,52.44],[-56.2,52.45],[-55.62,52.22],[-55.92,51.94],[-58.62,51.28],[-59.94,50.26],[-66.45,50.27],[-69.68,48.15],[-70.37,48.37],[-70.99,48.47],[-71.07,48.44],[-69.74,48.12],[-71.24,46.79],[-71.88,46.69],[-72.99,46.21],[-73.98,45.5],[-74.38,45.56],[-73.96,45.35],[-74.71,45],[-73.52,45.43],[-72.19,46.53],[-71.87,46.67],[-71.71,46.63],[-70.53,47.01],[-68.82,48.37],[-65.57,49.27],[-64.55,49.1],[-64.19,48.53],[-66.85,48],[-64.8,47.81],[-65.37,47.09],[-64.8,47.08],[-64.56,46.22],[-62.75,45.61],[-61.91,45.89],[-61.46,45.35],[-61,45.33],[-60.97,45.27],[-64.31,44.57],[-65.47,43.47],[-66.12,43.74],[-65.84,44.57],[-66.18,44.43],[-64.48,45.34],[-64.16,44.98],[-63.36,45.36],[-64.58,45.42],[-64.93,45.33],[-64.26,45.77],[-64.75,46.09],[-64.77,45.61],[-65.75,45.24],[-67.19,45.23],[-67.2,44.64],[-68.54,44.24],[-68.8,44.56],[-70.73,43.12],[-70.6,42.63],[-71.05,42.32],[-69.94,41.67],[-71.19,41.47],[-71.39,41.82],[-71.5,41.37],[-73.89,40.8],[-73.88,41.15],[-73.98,41.29],[-74.41,39.36],[-74.95,38.93],[-75.56,39.61],[-75.41,39.8],[-75.14,39.87],[-75.02,40.02],[-75.39,39.84],[-75.59,39.65],[-75.04,38.43],[-75.95,37.12],[-75.63,37.96],[-76.37,38.84],[-75.83,39.58],[-76.62,39.26],[-76.32,38.04],[-77.03,38.48],[-77.26,38.39],[-77.01,38.7],[-77.02,38.85],[-77.07,38.9],[-77.34,38.35],[-76.25,37.9],[-76.5,37.66],[-76.93,38.09],[-77.06,38.17],[-77.13,38.17],[-76.55,37.63],[-76.28,37.57],[-76.8,37.5],[-76.27,37.05],[-76.86,37.32],[-77.27,37.32],[-76,36.93],[-75.52,35.79],[-75.95,36.72],[-75.79,36.08],[-76.73,36.32],[-76.73,35.95],[-75.72,35.83],[-76.15,35.35],[-77.05,35.53],[-76.47,35.27],[-76.94,34.98],[-76.35,34.88],[-77.44,34.75],[-77.94,33.93],[-78.76,33.78],[-80.55,32.28],[-80.85,32.54],[-80.68,32.21],[-81.49,31.37],[-80.04,26.81],[-80.4,25.19],[-81.15,25.17],[-81.78,26.71],[-82.04,26.53],[-81.98,27],[-82.31,26.85],[-82.71,27.47],[-82.39,27.81],[-82.84,27.83],[-82.8,29.17],[-84.02,30.11],[-85.35,29.68],[-85.58,30.32],[-86.51,30.41],[-86.11,30.39],[-86.21,30.5],[-90.22,30.39],[-90.38,30.08],[-89.37,30.05],[-89.76,29.63],[-89.01,29.17],[-89.41,28.93],[-89.82,29.47],[-90.88,29.13],[-91.85,29.83],[-92.31,29.53],[-93.85,29.99],[-93.88,29.68],[-94.76,29.37],[-94.7,29.46],[-94.5,29.53],[-94.49,29.57],[-95.05,29.75],[-95.16,29.05],[-95.95,28.69],[-95.72,28.72],[-96.22,28.49],[-96.65,28.73],[-96.4,28.43],[-97.52,27.87],[-97.41,27.34],[-97.77,27.47],[-97.14,25.97],[-97.89,22.61],[-97.32,21.56],[-97.41,21.27],[-97.37,21.54],[-97.78,22.07],[-97.15,20.65],[-95.85,18.72],[-94.47,18.14],[-92.41,18.67],[-91.49,18.44],[-90.48,19.92],[-90.33,21.03],[-88.13,21.62],[-86.83,21.43],[-87.74,19.67],[-87.41,19.58],[-87.84,18.2],[-88.04,18.87],[-88.39,18.37],[-88.22,16.96],[-88.91,15.89],[-85,15.99],[-83.13,15],[-83.87,11.27],[-82.24,9],[-81.08,8.8],[-78.97,9.57],[-77.86,9.11],[-76.78,7.91],[-76.95,8.55],[-75.62,9.45],[-75.46,10.63],[-74.84,11.11],[-74.4,10.75],[-74.15,11.34],[-73.29,11.29],[-71.68,12.47],[-71.11,12.07],[-71.97,11.55],[-71.58,10.72],[-72.12,9.83],[-71.65,9.05],[-71.04,9.74],[-71.58,10.81],[-69.79,11.44],[-70.3,11.86],[-70.02,12.2],[-69.62,11.47],[-68.4,11.2],[-68.13,10.49],[-66.28,10.65],[-65.08,10.05],[-63.66,10.49],[-64.23,10.52],[-64.27,10.67],[-61.85,10.74],[-62.92,10.53],[-62.63,10.13],[-63.02,10.1],[-60.96,9.54],[-61.21,8.61],[-61.65,8.59],[-60.2,8.62],[-59.17,8.06],[-58.47,7.35],[-58.69,6.38],[-58.01,6.79],[-57.19,6.12],[-57.25,5.48],[-56.96,6.01],[-54.25,5.89],[-54.17,5.35],[-53.94,5.74],[-52.99,5.46],[-52.05,4.33],[-51.8,4.61],[-51.68,4.04],[-51.52,4.44],[-51.22,4.17],[-50.78,2.07],[-49.95,1.72],[-49.89,1.17],[-51.33,-0.08],[-51.93,-1.34],[-52.71,-1.6],[-52.2,-1.69],[-50.84,-0.91],[-50.84,-1.96],[-49.42,-1.78],[-49.62,-2.67],[-48.97,-1.6],[-48.43,-1.66],[-48.11,-0.72],[-47.29,-0.59],[-45.33,-1.31],[-45.32,-1.74],[-44.86,-1.43],[-44.49,-1.99],[-44.82,-2.28],[-44.36,-2.31],[-44.8,-3.3],[-44.29,-2.48],[-44.2,-2.87],[-43.43,-2.34],[-41.24,-3.02],[-39.99,-2.85],[-37.18,-4.91],[-35.55,-5.13],[-35.22,-5.58],[-34.94,-8.35],[-36.41,-10.5],[-37.28,-11.02],[-38.21,-12.82],[-38.92,-12.74],[-39.14,-17.68],[-40.97,-21.99],[-42.01,-22.98],[-44.41,-22.94],[-45.43,-23.83],[-46.39,-23.87],[-48.21,-25.46],[-48.74,-25.35],[-48.36,-25.57],[-48.8,-26.07],[-48.48,-27.15],[-48.76,-28.53],[-50.72,-31.04],[-52.08,-32.17],[-50.57,-30.45],[-51.28,-30.01],[-51.27,-30.78],[-52.22,-31.74],[-52.62,-33.1],[-54.15,-34.67],[-56.16,-34.94],[-57.86,-34.47],[-58.43,-33.78],[-58.05,-32.91],[-58.2,-32.44],[-58.57,-34.29],[-57.2,-35.31],[-57.37,-35.98],[-56.67,-36.89],[-58.33,-38.49],[-62.38,-38.8],[-62.02,-39.38],[-62.34,-40.87],[-63.62,-41.16],[-65.13,-40.84],[-65,-42.09],[-64.45,-42.45],[-63.77,-42.08],[-63.62,-42.75],[-64.95,-42.65],[-64.3,-42.98],[-65.33,-43.66],[-65.52,-44.93],[-66.93,-45.26],[-67.58,-45.99],[-66.79,-47.01],[-65.74,-47.2],[-65.85,-47.74],[-66.03,-47.74],[-66.39,-47.86],[-65.76,-47.95],[-67.56,-49.02],[-67.89,-50],[-68.74,-49.73],[-69.01,-50.01],[-68.35,-50.15],[-69.41,-51.08],[-68.96,-51.56],[-69.38,-51.56],[-69.62,-51.63],[-68.97,-51.62],[-68.42,-52.39],[-69.23,-52.2],[-70.86,-52.72],[-71.29,-53.89],[-72.45,-53.41],[-71.81,-53.52],[-71.12,-52.92],[-71.4,-52.73],[-72.56,-53.08],[-72.19,-53.18],[-72.65,-53.32],[-72.36,-53.54],[-73.2,-53.24],[-72.71,-53.29],[-72.98,-52.84],[-72.76,-52.77],[-72.7,-52.71],[-71.48,-52.65],[-72.86,-52.5],[-72.67,-52.65],[-73.02,-52.84],[-72.98,-53.05],[-73.44,-53.01],[-72.89,-52.52],[-73.7,-52.71],[-73.74,-52.03],[-73.3,-52.22],[-73,-52.06],[-73.08,-52.24],[-72.87,-52.26],[-72.8,-51.94],[-72.54,-52.22],[-72.93,-52.45],[-72.52,-52.45],[-72.47,-51.79],[-72.69,-51.59],[-73.09,-51.42],[-72.56,-51.78],[-73.28,-51.61],[-72.92,-51.86],[-73.22,-52.09],[-73.33,-51.73],[-73.39,-51.65],[-73.29,-52.17],[-73.56,-52.04],[-73.69,-51.14],[-74.26,-50.94],[-73.8,-50.96],[-73.56,-50.4],[-74.04,-50.82],[-74.02,-50.36],[-74.69,-50.18],[-73.86,-50.29],[-74.32,-49.63],[-73.69,-49.72],[-74.12,-49.42],[-73.83,-49.03],[-74.42,-49.38],[-74.45,-48.81],[-74.06,-48.74],[-74.4,-48.61],[-73.89,-48.41],[-74.27,-48.34],[-74.63,-48],[-73.23,-48],[-73.72,-47.53],[-73.92,-47.84],[-74.74,-47.72],[-74.04,-47.61],[-74.53,-47.43],[-73.97,-47.25],[-74.13,-46.83],[-75.01,-46.75],[-74.93,-46.44],[-75.71,-46.79],[-74.65,-45.82],[-74.1,-45.84],[-74.49,-46.19],[-73.74,-46.53],[-73.19,-45.66],[-73.59,-45.78],[-73.51,-45.45],[-72.83,-45.42],[-73.4,-44.99],[-72.6,-44.51],[-73.29,-44.15],[-72.82,-43.81],[-73.08,-43.32],[-72.54,-42.56],[-72.84,-42.28],[-72.42,-42.44],[-72.89,-41.91],[-72.3,-41.65],[-72.3,-41.38],[-73.52,-41.8],[-73.94,-41.05],[-73.22,-39.42],[-73.68,-37.35],[-73.21,-37.16],[-71.62,-33.54],[-71.52,-28.94],[-70.63,-26.34],[-70.6,-23.24],[-70.06,-21.43],[-70.31,-18.43],[-75.93,-14.65],[-78.99,-8.22],[-81.15,-5.98],[-80.86,-5.65],[-81.29,-4.3],[-79.73,-2.57],[-79.77,-2],[-80.26,-2.73],[-80.92,-2.31],[-80.91,-1.04],[-80.3,-0.66],[-80.08,0.82],[-78.81,1.28],[-78.57,2.43],[-77.76,2.59],[-77.03,3.92],[-77.44,4.03],[-77.35,6.57],[-78.44,8.06],[-78.13,8.41],[-78,8.24],[-77.89,8.23],[-77.78,8.12],[-77.74,8.13],[-79.05,9.13],[-80.47,8.22],[-80.02,7.46],[-80.86,7.21],[-81.05,7.91],[-81.42,7.67],[-82.18,8.34],[-82.88,8.02],[-84.73,9.97],[-85.29,10.28],[-84.86,9.83],[-85.11,9.56],[-85.66,9.9],[-85.67,11.05],[-87.67,12.89],[-87.29,12.92],[-87.4,13.41],[-88.46,13.17],[-91.32,13.96],[-94.14,16.23],[-94.88,16.42],[-96.56,15.66],[-103.5,18.33],[-105.53,20.03],[-105.19,21.45],[-105.98,22.86],[-108.33,25.11],[-108,25.03],[-109.12,25.54],[-108.98,25.54],[-108.84,25.8],[-109.16,25.56],[-109.41,25.65],[-109.09,26.29],[-112.17,28.97],[-113.09,31.2],[-115.03,31.97],[-114.53,29.97],[-112.85,28.44],[-111.44,26.52],[-110.68,24.36],[-109.83,24.06],[-109.45,23.2],[-109.98,22.88],[-111.81,24.51],[-112.38,26.22],[-115.02,27.74],[-113.95,27.66],[-114.07,28.52],[-115.7,29.76],[-117.36,33.17],[-118.54,34.04],[-120.64,34.56],[-120.64,35.14],[-122.52,37.53],[-122.03,37.46],[-122.37,38.01],[-121.45,38],[-122.4,38.15],[-122.53,37.82],[-123.03,37.99],[-124.36,40.26],[-124.07,41.54],[-124.57,42.83],[-124.07,43.71],[-124.02,46.23],[-123.8,46.1],[-123.87,46.19],[-123.52,46.24],[-123.39,46.15],[-123.26,46.13],[-123.18,46.18],[-123.69,46.31],[-124.08,46.27],[-123.81,46.96],[-124.18,46.93],[-124.73,48.37],[-122.77,48.14],[-123.16,47.36],[-122.55,47.92],[-122.57,47.26],[-122.81,47.4],[-123.08,47.13],[-122.69,47.1],[-122.33,47.36],[-122.19,48.03],[-123.21,49.13],[-123.25,49.27],[-122.96,49.28],[-122.89,49.33],[-122.86,49.45],[-123.27,49.34],[-123.17,49.71],[-123.52,49.39],[-123.96,49.52],[-123.53,49.71],[-123.93,49.76],[-123.75,50.09],[-123.97,50.21],[-123.98,49.81],[-124.76,49.98],[-124.35,50.5],[-125.08,50.32],[-124.87,50.58],[-124.81,50.93],[-125.7,50.44],[-126.28,50.63],[-125.71,50.68],[-125.51,50.94],[-125.64,51.1],[-125.65,50.78],[-126.19,50.67],[-127.78,51.17],[-127.13,51.34],[-127.78,51.33],[-127.55,51.47],[-127.49,51.62],[-126.68,51.65],[-126.6,51.71],[-127.35,51.87],[-127.65,51.7],[-127.47,51.66],[-127.62,51.48],[-127.73,51.46],[-127.85,51.92],[-127.15,52.32],[-126.67,51.99],[-126.73,52.37],[-127.19,52.39],[-126.93,52.73],[-127.08,52.89],[-127.62,52.3],[-128.39,52.3],[-128.03,52.92],[-128.44,52.83],[-128.97,53.56],[-127.87,53.23],[-128.81,53.62],[-128.6,54.03],[-129.29,53.39],[-130.1,53.95],[-129.48,54.24],[-130.28,54.21],[-130.44,54.62],[-130.05,54.34],[-129.96,54.32],[-130.37,54.66],[-130.23,54.71],[-130.01,54.62],[-129.88,54.62],[-130.17,54.84],[-129.47,55.47],[-129.82,55.62],[-129.79,55.36],[-130.12,55.01],[-129.95,55.29],[-130.13,55.76],[-129.96,55.92],[-130.1,55.83]]],[[[-127.49,-73.44],[-126.1,-73.3],[-125.21,-73.64],[-125.87,-73.78],[-123.75,-74.07],[-125.2,-74.16],[-127.49,-73.44]]],[[[-123.52,48.37],[-125.11,48.74],[-125.19,48.8],[-124.85,49.02],[-124.78,49.15],[-124.81,49.25],[-125.49,48.92],[-125.91,49.44],[-126.54,49.39],[-126.09,49.67],[-127.9,50.11],[-127.42,50.6],[-128.42,50.77],[-125.45,50.33],[-123.81,49.12],[-123.52,48.37]]],[[[-121.05,-74.17],[-122.63,-74.38],[-123.03,-74.25],[-122.33,-73.92],[-123.35,-73.84],[-120.24,-73.97],[-121.05,-74.17]]],[[[-119.53,76.36],[-119.81,76.12],[-119.49,75.97],[-120.39,75.81],[-120.86,76.2],[-123.04,76.09],[-119.16,77.32],[-115.39,77.31],[-116.4,77.14],[-115.73,76.95],[-117.14,76.29],[-118.06,76.41],[-117.82,76.82],[-118.95,76.52],[-118.57,76.35],[-119.08,76.09],[-119.53,76.36]]],[[[-117.9,75.8],[-118.61,75.5],[-119.41,75.6],[-117.46,76.09],[-117.9,75.8]]],[[[-115.59,73.4],[-119.16,72.63],[-120.25,72.26],[-120.64,71.49],[-122.8,71.09],[-125.88,71.96],[-123.77,73.77],[-124.76,74.35],[-117.42,74.23],[-115.59,73.4]]],[[[-110.9,77.85],[-110.04,77.64],[-112.11,77.33],[-113.32,77.81],[-109.58,78.05],[-110.9,77.85]]],[[[-109.42,78.31],[-111.15,78.39],[-113.34,78.34],[-110.43,78.77],[-109.42,78.31]]],[[[-105.52,75.55],[-106.01,75.06],[-113.02,74.4],[-114.44,74.68],[-110.92,75.23],[-117.69,75.26],[-115,75.7],[-117.25,75.61],[-114.83,75.88],[-116.74,75.94],[-114.67,76.16],[-115.93,76.29],[-114.87,76.52],[-112.43,76.17],[-111.25,75.52],[-108.91,75.48],[-110.05,75.9],[-109.32,76.12],[-110.4,76.4],[-108.78,76.86],[-108.08,76.29],[-108.5,76.04],[-107.64,75.99],[-108.03,75.79],[-106.88,75.65],[-106.34,76.06],[-105.52,75.55]]],[[[-105.43,79.29],[-101.65,79.08],[-98.95,78.07],[-99.94,77.78],[-104.47,78.27],[-105.05,78.5],[-103.32,78.74],[-105.01,78.81],[-104.68,79.01],[-105.43,79.29]]],[[[-104.55,73.43],[-105.28,72.85],[-106.12,73.29],[-107.04,73.48],[-105.38,73.77],[-104.55,73.43]]],[[[-101.09,69.66],[-103.49,69.69],[-103.02,69.48],[-103.2,69.12],[-102.28,69.5],[-101.76,69.16],[-102.97,68.8],[-105.12,68.9],[-106.58,69.5],[-109.03,68.73],[-113.24,68.45],[-113.54,69.19],[-115.97,69.3],[-117.44,69.99],[-111.49,70.33],[-117.59,70.61],[-118.42,70.99],[-115.06,71.52],[-118.16,71.38],[-117.7,71.67],[-119.14,71.77],[-118.13,72.23],[-118.59,72.43],[-118.19,72.64],[-114.58,73.38],[-113.96,73.14],[-114.55,72.57],[-113.02,73.02],[-111.22,72.72],[-111.89,72.37],[-111.75,72.21],[-109.78,72.44],[-110.74,73],[-109.62,72.92],[-108.63,72.57],[-108.25,71.72],[-107.74,71.62],[-107.25,71.9],[-108.3,73.13],[-106.87,73.32],[-105.37,72.79],[-104.37,71.58],[-104.59,71.07],[-101.02,70.19],[-101.09,69.66]]],[[[-97.5,75.48],[-98.04,75.48],[-97.57,75.15],[-97.98,75.01],[-99.65,74.98],[-100.78,75.36],[-98.89,75.7],[-102.63,75.5],[-102.88,75.62],[-102.01,75.7],[-102.26,75.87],[-101.28,75.75],[-100.91,75.81],[-102.04,76.41],[-99.95,75.88],[-99.44,75.97],[-100.22,76.14],[-99.68,76.12],[-99.42,76.16],[-100.99,76.51],[-98.46,76.68],[-97.67,76.49],[-97.57,75.87],[-97.94,75.75],[-97.5,75.48]]],[[[-97.1,77.86],[-97.77,78.04],[-96.87,78.14],[-97.92,78.22],[-98.36,78.77],[-94.83,78.36],[-95.4,78.23],[-95.11,77.96],[-97.1,77.86]]],[[[-96.44,72.38],[-96.88,72.33],[-96.59,71.82],[-98.3,71.9],[-98.04,71.53],[-98.73,71.27],[-102.76,72.81],[-101.95,73.09],[-100.45,72.74],[-100.04,72.94],[-100.56,73.23],[-100.35,73.29],[-100.04,73.19],[-99.77,73.21],[-101.63,73.49],[-100.42,73.42],[-100.89,73.83],[-97.77,73.92],[-96.94,73.69],[-97.64,73.54],[-97.15,73.4],[-98.49,73.02],[-98.45,72.87],[-97.26,72.96],[-96.44,72.38]]],[[[-96.02,80.07],[-94.38,79.99],[-94.81,80.1],[-94.09,80.18],[-96.68,80.34],[-93.79,80.53],[-95.53,80.82],[-93.26,81.37],[-88.54,80.1],[-88.15,80.1],[-88.64,80.4],[-87.7,80.41],[-88.06,80.13],[-86.96,79.91],[-87.46,79.54],[-84.91,79.27],[-87.65,78.64],[-88,78.81],[-87.73,79.08],[-88.17,79],[-88.36,78.66],[-87.91,78.55],[-88.8,78.61],[-88.81,78.17],[-90.01,78.61],[-89.46,78.16],[-92.02,78.21],[-92.99,78.47],[-91.65,78.57],[-94.29,78.99],[-90.37,79.25],[-95.21,79.28],[-95.78,79.48],[-94.34,79.69],[-94.3,79.78],[-95.85,79.65],[-96.8,80.1],[-96.02,80.07]]],[[[-96.05,-72.58],[-98.58,-72.57],[-102.32,-72.06],[-98.69,-72.11],[-99.15,-71.92],[-98.53,-71.76],[-97.98,-71.86],[-98.35,-72.16],[-97.6,-71.89],[-97.39,-72.21],[-96.36,-71.84],[-96.07,-71.91],[-97,-72.21],[-95.5,-72.15],[-95.64,-72.21],[-96.23,-72.23],[-96.42,-72.29],[-95.43,-72.33],[-96.05,-72.58]]],[[[-95.57,68.68],[-96.52,68.45],[-99.6,69.03],[-98.02,69.43],[-98.37,69.61],[-97.93,69.9],[-95.21,68.85],[-95.57,68.68]]],[[[-93.57,74.75],[-94.72,74.63],[-96.62,74.99],[-94.39,75.6],[-93.5,75.27],[-93.57,74.75]]],[[[-93.48,77.53],[-95.99,77.48],[-96.33,77.61],[-93.1,77.66],[-93.48,77.53]]],[[[-90.42,77.21],[-91.18,77.39],[-91.21,77.58],[-89.64,77.34],[-90.42,77.21]]],[[[-90.34,73.87],[-92.1,72.75],[-94.32,72.77],[-93.46,72.46],[-94.06,71.98],[-94.34,72.03],[-95.21,71.99],[-94.79,72.16],[-95.72,73],[-95.72,73.69],[-94.62,73.66],[-95.33,73.92],[-94.72,74.1],[-90.34,73.87]]],[[[-81.94,62.82],[-83.07,62.19],[-83.94,62.42],[-83.3,62.93],[-81.94,62.82]]],[[[-80.58,63.64],[-82.48,63.69],[-83.01,64.19],[-85.27,63.12],[-85.71,63.77],[-87.22,63.66],[-86.19,64.1],[-86.15,65.4],[-85.49,65.92],[-84.93,65.22],[-84.55,65.49],[-81.77,64.51],[-81.61,64.13],[-81.99,64],[-80.17,63.77],[-80.58,63.64]]],[[[-80.33,73.76],[-77.43,73.56],[-76.06,72.9],[-79.57,72.76],[-80.87,73.33],[-80.86,73.75],[-80.33,73.76]]],[[[-80.16,74.86],[-81.79,74.46],[-83.49,74.91],[-84.26,74.51],[-88.52,74.5],[-88.54,74.9],[-91.51,74.64],[-92.5,75.22],[-92.13,75.87],[-93.06,76.35],[-95.39,76.24],[-94.8,76.33],[-96.97,76.74],[-95.77,77.08],[-93.2,76.75],[-93.66,76.45],[-93.56,76.4],[-90.92,76.64],[-90.47,76.49],[-91.57,76.5],[-89.19,76.25],[-91.61,76.27],[-90.19,76.07],[-91.16,76.02],[-91.13,75.84],[-89.96,76.02],[-88.94,75.43],[-82.33,75.84],[-79.49,75.38],[-80.44,75.04],[-79.36,74.89],[-80.16,74.86]]],[[[-79.33,61.99],[-79.81,61.57],[-80.29,61.93],[-79.83,62.41],[-79.33,61.99]]],[[[-76.11,-70.84],[-74.95,-70.58],[-73.55,-70.72],[-76.54,-70.97],[-76.11,-70.84]]],[[[-76.31,17.89],[-77.18,17.7],[-78.37,18.27],[-76.89,18.41],[-76.31,17.89]]],[[[-75.46,19.89],[-77.72,19.84],[-77.2,20.64],[-78.07,20.71],[-78.74,21.64],[-81.82,22.19],[-82.16,22.4],[-81.88,22.68],[-82.76,22.71],[-84.03,21.92],[-84.95,21.88],[-83.23,23],[-80.6,23.16],[-74.14,20.24],[-75.46,19.89]]],[[[-75.29,-49.64],[-75.46,-49.31],[-74.89,-49.36],[-75.06,-48.82],[-74.54,-48.71],[-74.47,-49.94],[-74.91,-49.93],[-74.65,-49.35],[-75.01,-49.9],[-75.29,-49.64]]],[[[-75.15,67.94],[-75.08,67.53],[-75.89,67.26],[-76.98,67.24],[-77.32,67.71],[-76.3,68.33],[-75.15,67.94]]],[[[-74.76,-73.3],[-74.36,-73.46],[-76.13,-73.16],[-74.22,-72.99],[-74.76,-73.3]]],[[[-74.32,-43.12],[-74.06,-41.81],[-73.5,-41.84],[-73.38,-42.29],[-73.82,-42.51],[-73.5,-43.13],[-74.32,-43.12]]],[[[-72.8,67.04],[-72.19,67.28],[-73.21,68.38],[-74.98,68.81],[-74.81,69.08],[-76.62,68.68],[-76.64,69.02],[-75.6,69.23],[-77.2,69.65],[-76.98,69.94],[-77.61,69.74],[-77.7,70.2],[-78.84,70.64],[-79.59,70.41],[-78.8,69.88],[-81.76,70.12],[-80.77,69.78],[-80.95,69.72],[-81.57,69.97],[-83.05,70.31],[-81.71,69.93],[-85.78,70],[-86.55,70.24],[-86.59,70.37],[-86.3,70.48],[-86.37,70.53],[-88.91,70.54],[-89.56,71.09],[-87,71],[-89.85,71.34],[-90.12,71.93],[-88.69,73.42],[-85.11,73.81],[-86.74,72.73],[-86.24,72.42],[-86.41,72.01],[-84.84,71.29],[-85.19,71.3],[-86.82,70.99],[-84.8,70.93],[-84.62,71.67],[-85.26,71.67],[-85.56,71.9],[-86.02,71.98],[-86.05,72.01],[-84.16,72.02],[-85.68,72.89],[-83.95,72.76],[-85.46,73.11],[-83.64,72.98],[-85.19,73.23],[-81.53,73.72],[-80.25,72.74],[-81.38,72.24],[-80.51,72.5],[-80.99,71.89],[-79.68,72.13],[-80.17,72.33],[-79.82,72.51],[-77.75,71.75],[-78.88,72.23],[-77,72.13],[-78.55,72.44],[-77.6,72.76],[-75.2,72.5],[-74.94,72.26],[-76.03,72.09],[-76.41,71.86],[-74.24,72.08],[-75.41,71.52],[-74.65,71.68],[-75.05,71.19],[-73.62,71.77],[-74.32,71.42],[-73.56,71.56],[-73.9,71.06],[-73.44,71.35],[-73.05,71.27],[-73.28,71.22],[-73.45,71.03],[-73.38,70.98],[-72.55,71.67],[-71.12,71.27],[-72.57,70.61],[-70.62,71.07],[-71.97,70.42],[-71.17,70.54],[-71.54,70.02],[-70.99,70.63],[-69.91,70.88],[-69.77,70.86],[-70.45,70.64],[-70.49,70.48],[-68.36,70.58],[-68.46,70.37],[-69.81,70.17],[-70.47,69.85],[-68.64,70.15],[-69.79,69.83],[-69.99,69.68],[-69.98,69.62],[-67.81,70.26],[-67.12,69.73],[-70.02,69.54],[-66.79,69.34],[-69.01,69.36],[-68.08,69.22],[-68.96,69.22],[-68.51,69.2],[-69.07,69.11],[-69.02,68.97],[-68.37,69.18],[-67.77,68.78],[-68.62,68.79],[-69.3,68.88],[-69.4,68.86],[-66.66,68.44],[-67.4,68.4],[-67.79,68.34],[-67.88,68.28],[-66.31,68.13],[-66.75,67.88],[-66.39,67.78],[-65.93,68.16],[-66.01,67.64],[-65.81,67.97],[-65.36,67.6],[-65.42,67.91],[-64.75,68],[-65.07,67.93],[-65.19,67.64],[-64.5,67.81],[-63.91,67.31],[-64.8,67.35],[-63.96,67.28],[-64.61,67.14],[-64.7,67.01],[-63.16,67.34],[-63.82,66.82],[-62.87,66.97],[-62.9,66.64],[-62.09,67.06],[-61.27,66.63],[-62.89,66.34],[-61.95,66.02],[-62.32,65.98],[-62.92,66.15],[-63.07,66.12],[-62.29,65.82],[-62.87,65.91],[-62.57,65.76],[-62.66,65.59],[-63.51,65.94],[-63.54,64.9],[-65.51,65.76],[-64.35,66.35],[-65.9,65.95],[-65.96,66.05],[-65.64,66.17],[-65.48,66.39],[-66.01,66.12],[-66.52,66.22],[-66.44,66.41],[-67.06,66.65],[-67.75,66.57],[-67.15,66.3],[-67.4,66.3],[-67.63,66.45],[-67.99,66.51],[-67.19,65.92],[-68.51,66.3],[-68.85,66.19],[-64.67,64.03],[-64.99,63.83],[-64.54,63.26],[-64.72,63.28],[-64.94,63.63],[-65.3,63.81],[-64.63,62.91],[-65.27,63.01],[-65.17,62.57],[-66.64,63.37],[-66.55,63],[-67.92,63.77],[-67.7,63.37],[-68.99,63.76],[-65.99,62.24],[-66.06,61.87],[-71.4,63.06],[-72.14,63.45],[-71.61,63.43],[-71.23,63.6],[-72.67,63.86],[-73.39,64.28],[-73.17,64.59],[-73.3,64.67],[-74.08,64.33],[-74.65,64.9],[-74.99,64.8],[-74.68,64.38],[-75.82,64.62],[-76.69,64.19],[-78.3,64.71],[-77.39,65.47],[-75.8,65.23],[-75.74,65.16],[-75.44,65.07],[-75.67,64.95],[-75.38,64.72],[-75.2,65.11],[-75.95,65.32],[-73.47,65.46],[-74.47,66.15],[-72.8,67.04]]],[[[-72.72,-72.61],[-73.16,-72.43],[-70.12,-72.24],[-72.06,-72.16],[-70.72,-71.91],[-72.34,-71.61],[-74,-72.17],[-75.41,-71.66],[-72.19,-71.37],[-73.12,-71.14],[-72.79,-71.06],[-69.84,-71.15],[-71.27,-70.68],[-69.59,-70.39],[-71.81,-70.03],[-72.01,-68.96],[-70.11,-68.89],[-68.3,-70.87],[-68.44,-72.24],[-72.72,-72.61]]],[[[-72.52,18.21],[-73.87,18.03],[-74.49,18.43],[-72.35,18.53],[-72.7,19.45],[-73.46,19.67],[-73.17,19.94],[-69.95,19.68],[-69.16,19.31],[-69.61,19.09],[-68.33,18.62],[-68.66,18.21],[-70.7,18.43],[-71.42,17.6],[-72.52,18.21]]],[[[-68.81,-54.87],[-70.76,-54.84],[-70.45,-54.63],[-71.04,-54.78],[-70.96,-54.61],[-71.94,-54.65],[-72,-54.46],[-70.13,-54.55],[-70.93,-54.11],[-68.99,-54.47],[-70.18,-53.83],[-69.35,-53.36],[-70.47,-53.31],[-70.09,-52.91],[-70.42,-52.76],[-69.42,-52.45],[-68.59,-52.65],[-68.31,-52.91],[-68.23,-53.1],[-68.55,-53.24],[-67.3,-54.05],[-65.14,-54.65],[-66.45,-55.05],[-68.81,-54.87]]],[[[-68.8,-67.23],[-68.32,-66.79],[-67.64,-66.68],[-68.13,-67.57],[-68.91,-67.75],[-69.18,-67.53],[-68.8,-67.23]]],[[[-68.12,-55.7],[-68.95,-55.45],[-68.8,-55.19],[-68.99,-55.27],[-69.12,-55.15],[-69.13,-55.25],[-69.24,-55.13],[-69.44,-55.16],[-69.16,-55.51],[-70.03,-55.15],[-69.58,-55.15],[-69.53,-55.03],[-68.44,-54.94],[-69.06,-55.04],[-68.21,-55.26],[-68.5,-55.31],[-68.66,-55.26],[-68.75,-55.27],[-68.12,-55.7]]],[[[-67.39,-78.66],[-69.65,-79.6],[-71.82,-79.48],[-70.59,-78.89],[-66.61,-78.36],[-67.39,-78.66]]],[[[-66.66,-79.66],[-65.55,-79.78],[-65.9,-79.84],[-65.45,-79.95],[-67.84,-79.56],[-65.79,-79.62],[-66.66,-79.66]]],[[[-65.64,18.22],[-67.2,17.94],[-67.27,18.36],[-65.9,18.46],[-65.64,18.22]]],[[[-64.49,49.89],[-63.12,49.78],[-61.66,49.15],[-63.09,49.23],[-64.49,49.89]]],[[[-62.27,46.34],[-62.75,45.95],[-64.42,46.68],[-64,47.07],[-63.94,46.48],[-61.98,46.45],[-62.27,46.34]]],[[[-61.87,82.11],[-69.31,81.72],[-66.61,81.52],[-70.21,81.18],[-64.44,81.48],[-69.67,80.36],[-70.82,80.57],[-70.16,80.19],[-72.42,80.21],[-70.49,80.06],[-71.46,79.9],[-71.14,79.79],[-78.06,79.36],[-74.47,79.23],[-74.82,79.18],[-74.44,79.06],[-78.9,79.07],[-74.63,78.59],[-76.66,78.53],[-75.03,78.34],[-78.22,78],[-77.72,77.61],[-78.69,77.32],[-81.94,77.69],[-81.17,77.33],[-82.2,77.3],[-81.86,77.17],[-77.72,76.82],[-81.07,76.13],[-80.77,76.42],[-82.73,76.82],[-82.14,76.44],[-83.38,76.76],[-83.19,76.43],[-84.29,76.66],[-85.2,76.28],[-86.58,76.64],[-88.4,76.39],[-88.51,76.82],[-88.62,76.4],[-89.68,76.57],[-88.49,77.11],[-86.6,77.18],[-88.22,77.86],[-84.47,77.3],[-83.47,77.35],[-83.84,77.46],[-82.99,77.68],[-82.32,78.08],[-84.76,77.52],[-84.44,77.73],[-85.4,77.83],[-84.32,77.9],[-85.68,77.94],[-84.03,78.18],[-84.97,78.21],[-84.62,78.59],[-85.49,78.11],[-87.54,78.14],[-86.94,78.71],[-82.34,78.57],[-83.26,78.84],[-81.75,78.84],[-81.48,79.05],[-82.53,78.89],[-84.75,79.04],[-84.45,79.15],[-83.98,79.05],[-83.45,79.03],[-83.36,79.06],[-86.47,79.76],[-85.25,79.93],[-86.5,80.31],[-80.59,79.57],[-79.75,79.71],[-81.52,79.72],[-83.21,80.32],[-78.05,80.57],[-79.96,80.62],[-76.52,80.86],[-78.94,80.88],[-76.74,81.44],[-80.88,80.66],[-85.12,80.5],[-86.75,80.6],[-82.36,81.18],[-87.71,80.65],[-89.46,80.91],[-86.7,81.01],[-84.73,81.28],[-89.83,81.01],[-90.35,81.17],[-87.25,81.5],[-91.96,81.66],[-88.07,82.11],[-84.6,81.89],[-86.88,82.21],[-84.71,82.48],[-79.23,81.82],[-82.73,82.4],[-80.58,82.54],[-81.47,82.83],[-78.5,82.69],[-80.43,82.9],[-79.34,82.98],[-75.4,82.62],[-77.39,82.99],[-76.14,83.05],[-72.59,82.7],[-73.65,82.93],[-66.3,82.93],[-68.62,82.63],[-64.7,82.91],[-61.09,82.33],[-61.87,82.11]]],[[[-60.46,45.64],[-61.32,45.56],[-61.55,46.02],[-60.59,47.03],[-60.43,46.28],[-61.15,45.71],[-60.35,46.31],[-59.81,46.17],[-60.46,45.64]]],[[[-60.04,-51.96],[-60.59,-52.24],[-61.04,-52.05],[-60.08,-51.69],[-60.65,-51.35],[-59.21,-51.41],[-60.04,-51.96]]],[[[-59.62,-80.26],[-60.65,-80.96],[-66.8,-80.33],[-61.75,-80.37],[-61.18,-80.25],[-61.81,-80.06],[-61.52,-79.89],[-60.08,-79.66],[-60.49,-79.74],[-59.29,-80.18],[-59.62,-80.26]]],[[[-58.14,-51.76],[-58.95,-51.8],[-58.64,-52.11],[-59.27,-51.99],[-59.34,-52.34],[-59.72,-52.11],[-58.99,-51.8],[-58.95,-51.25],[-57.77,-51.49],[-58.14,-51.76]]],[[[-53.87,69.28],[-54.27,69.4],[-53.4,69.44],[-53.35,69.59],[-54.83,69.62],[-54.39,69.68],[-54.86,69.94],[-54.22,69.92],[-54.83,70.2],[-51.84,69.64],[-53.87,69.28]]],[[[-52.71,47.38],[-53.55,46.62],[-53.56,47.2],[-54.19,46.83],[-53.81,47.42],[-54.08,47.88],[-55.74,46.85],[-54.7,47.67],[-56.16,47.49],[-55.63,47.68],[-55.78,47.96],[-56.79,47.53],[-59.15,47.56],[-59.41,47.9],[-58.27,48.52],[-59.26,48.47],[-58.4,49.14],[-58.36,49.06],[-58.21,49.07],[-58.07,48.98],[-57.88,48.97],[-58.23,49.37],[-57.7,49.46],[-57.94,49.71],[-57.09,51.02],[-55.51,51.6],[-56.09,51.37],[-55.73,51.08],[-56.86,49.55],[-56.12,50.16],[-55.47,49.96],[-56.13,49.43],[-55.31,49.31],[-55.31,49.53],[-55.2,49.51],[-55.21,49.53],[-55.16,49.55],[-55.14,49.54],[-55.38,49.05],[-54.47,49.55],[-53.49,49.29],[-54.16,48.39],[-53.07,48.7],[-53.93,47.85],[-53.55,47.54],[-52.92,48.17],[-53.26,47.56],[-52.77,47.8],[-52.71,47.38]]],[[[-50.25,-79.52],[-50.74,-79.28],[-50.2,-78.59],[-47.22,-77.77],[-43.82,-78.25],[-45.37,-78.79],[-43.74,-78.8],[-42.94,-79.52],[-43.86,-80],[-43.53,-80.2],[-54.41,-80.74],[-53.41,-80.11],[-50.25,-79.52]]],[[[-48.56,-0.71],[-48.84,-1.45],[-49.8,-1.82],[-50.8,-1.43],[-50.35,-0.1],[-48.39,-0.27],[-48.56,-0.71]]],[[[-48.21,-81.9],[-46.23,-81.92],[-45.95,-82.13],[-46.69,-82.41],[-45.52,-82.53],[-38.79,-80.86],[-37.23,-81.09],[-35.36,-80.62],[-22.53,-79.92],[-30.67,-79.59],[-29.54,-79.28],[-36.44,-78.63],[-34.32,-77.47],[-28.86,-76.35],[-18.25,-75.46],[-18.87,-75.25],[-17.57,-74.37],[-15.2,-74.36],[-14.36,-73.86],[-16.52,-73.89],[-15.83,-73.79],[-16.54,-73.47],[-13.92,-73.11],[-14.39,-72.71],[-11.39,-72.42],[-10.85,-71.78],[-12.35,-71.36],[-10.76,-71.58],[-10.07,-70.91],[-8.72,-71.7],[-7.6,-71.63],[-7.91,-70.84],[-6.01,-70.68],[-5.57,-70.84],[-6.15,-71.37],[-1.14,-71.26],[-0.52,-71.77],[2.52,-70.9],[7.67,-70.52],[7.48,-70.19],[8.44,-70.48],[9.29,-70.08],[11.85,-70.78],[12.97,-70.05],[18.09,-70.54],[18.94,-70.17],[19.3,-70.37],[18.93,-70.74],[19.57,-70.95],[21.2,-70.81],[21.75,-70.23],[22.58,-70.54],[21.83,-70.66],[22.33,-70.76],[24.11,-70.41],[24.97,-70.95],[27.28,-70.99],[32.75,-70.01],[33,-69.5],[32.51,-68.9],[33.22,-68.67],[34.3,-68.69],[33.6,-69.05],[35.13,-69.26],[35.24,-69.74],[37.79,-69.68],[38.94,-70.2],[39.78,-69.61],[39.86,-68.83],[46.4,-67.75],[46.48,-67.28],[48.38,-68.02],[48.58,-67.47],[49.41,-67.22],[48.36,-67.02],[50.88,-67.22],[50.32,-66.39],[53.79,-65.85],[57.28,-66.58],[55.99,-66.59],[56.71,-66.9],[55.73,-67.26],[56.17,-67.41],[57.59,-66.99],[59.51,-67.61],[69.64,-67.76],[70.18,-68.49],[69.28,-68.83],[69.86,-68.87],[69.3,-69.05],[69.74,-69.3],[68.74,-69.39],[69.36,-69.62],[69.02,-69.95],[68.18,-69.72],[67.22,-70.26],[69.26,-70.43],[66.33,-73.13],[67.22,-73.31],[68.02,-73.15],[68.33,-72.51],[71.54,-71.61],[71.16,-71.46],[71.73,-70.77],[73.41,-69.8],[75.44,-69.94],[77.84,-69.13],[78.75,-68.26],[83.62,-67.64],[84.49,-67.11],[91.96,-66.5],[99.07,-66.49],[98.72,-66.64],[98.83,-66.91],[102.71,-65.86],[108.86,-66.97],[110.74,-66.71],[110.49,-66.31],[110.93,-66.05],[113.2,-65.77],[115.78,-66.79],[113.7,-67.5],[116.94,-66.95],[120.45,-66.98],[118.96,-67.42],[125.94,-66.3],[126.85,-66.45],[126.57,-66.67],[127.08,-67.14],[129.06,-67.17],[130.7,-66.15],[133.79,-66.11],[134.35,-66.52],[135.34,-66.1],[136.66,-66.54],[144.51,-67.02],[143.88,-67.93],[146.05,-67.59],[147.06,-68.42],[150.96,-68.34],[151.57,-68.92],[153.84,-68.76],[153.88,-68.28],[155.64,-69.13],[159.77,-69.51],[160.33,-69.8],[159.88,-69.99],[162.34,-71.11],[162,-70.44],[162.6,-70.27],[163.9,-70.78],[167.7,-70.79],[167.14,-71],[170.18,-71.67],[170.28,-71.3],[170.97,-71.83],[169.77,-72.22],[170.26,-72.6],[168.32,-72.37],[169.93,-72.74],[169.21,-73.28],[166.34,-72.9],[166.78,-73.37],[167.1,-73.25],[167.93,-73.36],[166.14,-73.48],[165.65,-73.91],[165.2,-73.86],[165.36,-73.34],[164.53,-73.33],[165.31,-74.03],[164.41,-73.94],[165.43,-74.63],[163.47,-74.34],[162.36,-74.84],[162.6,-75.22],[160.58,-75.38],[162.9,-75.82],[162.09,-76.2],[162.88,-76.44],[162.42,-76.64],[162.97,-76.79],[162.3,-76.95],[164.24,-77.78],[163.73,-77.88],[164.56,-77.89],[163.84,-78.23],[165.49,-78.02],[167.23,-78.67],[162.62,-78.95],[161.55,-78.51],[162.07,-79.07],[161,-78.93],[160.39,-79.17],[161.03,-79.47],[159.64,-79.53],[160.84,-79.62],[159.5,-79.82],[161.47,-79.9],[158.17,-80.42],[160.77,-80.38],[159.75,-80.57],[161.35,-80.78],[159.58,-80.77],[159.5,-80.84],[160.88,-80.91],[160.54,-81.12],[161.14,-81.24],[160.13,-81.2],[163.92,-82.19],[160.8,-82.49],[164.67,-82.34],[168.87,-83.15],[167,-83.2],[168.03,-83.36],[180,-84.35],[180,-90],[-180,-90],[-180,-84.35],[-168.25,-84.65],[-167.44,-84.87],[-162.85,-84.88],[-158.47,-85.16],[-156.01,-85.22],[-156.93,-85.2],[-155.5,-85.13],[-157.64,-84.9],[-155.59,-84.84],[-166.42,-84.37],[-163,-84.36],[-174.37,-82.78],[-164.18,-83.53],[-157.56,-83.39],[-156.92,-83.23],[-158.56,-83.13],[-152.54,-82.55],[-154.84,-81.94],[-153.82,-81.68],[-157.1,-81.27],[-147.63,-80.92],[-151.01,-80.43],[-147.55,-80.05],[-149,-79.86],[-147.98,-79.94],[-147.16,-79.95],[-147.07,-79.91],[-156.53,-78.66],[-153.82,-78.23],[-158.34,-77.97],[-158.64,-77.85],[-158.12,-77.56],[-158.22,-77.07],[-149.97,-77.82],[-147.76,-77.46],[-149.06,-77.32],[-148.77,-77.1],[-145.46,-77.52],[-145.95,-77.23],[-145.25,-77.23],[-146.38,-77],[-145.31,-77.06],[-145.96,-76.86],[-145.46,-76.75],[-149.71,-76.38],[-148.2,-76.09],[-145.35,-76.43],[-146.5,-76.09],[-142.47,-75.43],[-140.65,-75.81],[-141.33,-75.53],[-136.35,-75.18],[-137.01,-75.01],[-135.42,-74.57],[-133.87,-74.93],[-121.77,-74.79],[-117.97,-74.26],[-114.87,-74.48],[-115.12,-74.09],[-114.21,-73.86],[-113.44,-74.1],[-113.8,-74.45],[-113.23,-74.4],[-114.36,-74.7],[-113.83,-74.71],[-114.11,-75.07],[-111.54,-74.8],[-111.93,-74.55],[-111.33,-74.48],[-111.9,-74.28],[-111.59,-74.17],[-110.1,-74.55],[-111.62,-75.2],[-111.3,-75.24],[-98.4,-75.24],[-100.52,-74.89],[-99.8,-74.54],[-101.4,-74.5],[-101.59,-74],[-103,-73.61],[-98.87,-73.59],[-102.87,-73.31],[-103.43,-72.85],[-103.04,-72.71],[-91.08,-73.34],[-89.23,-73.11],[-89.35,-72.63],[-88.17,-72.73],[-88.71,-73.12],[-88.41,-73.27],[-85.68,-73.18],[-82.14,-73.89],[-81.18,-73.7],[-81.23,-73.25],[-80.81,-73.26],[-80.39,-73.41],[-80.2,-73.4],[-80.49,-72.95],[-78.84,-73.61],[-76.72,-73.52],[-77.08,-73.88],[-68.78,-73.11],[-67.51,-72.83],[-66.75,-72.11],[-68.82,-69.43],[-67.39,-69.5],[-66.76,-69.07],[-67.48,-68.84],[-66.96,-68.75],[-67.16,-68.3],[-66.63,-68.25],[-67.27,-67.97],[-66.51,-67.53],[-67.61,-67.55],[-67.48,-67.05],[-66.46,-67.34],[-66.55,-66.65],[-65.69,-66.68],[-65.71,-66.15],[-63.8,-65.61],[-63.87,-65.05],[-63.08,-65.17],[-60.99,-64.06],[-57.37,-63.22],[-56.78,-63.6],[-57.45,-63.44],[-59.11,-64.23],[-58.82,-64.54],[-60.01,-64.4],[-62.2,-65.3],[-61.7,-65.55],[-62.36,-65.81],[-62.02,-66.11],[-60.55,-65.96],[-60.99,-66.34],[-62.67,-66.23],[-62.64,-66.72],[-63.81,-66.19],[-63.57,-66.39],[-64.13,-66.64],[-63.76,-66.9],[-64.62,-66.77],[-65.07,-67.2],[-64.75,-67.31],[-65.62,-67.37],[-65.33,-67.98],[-65.76,-68.17],[-64.76,-68.11],[-65.49,-68.32],[-64.98,-68.41],[-65.24,-68.63],[-64.03,-68.83],[-64.33,-68.64],[-63.99,-68.49],[-62.87,-68.42],[-63.9,-68.98],[-62.4,-69.52],[-62.53,-69.86],[-61.87,-70.21],[-62.41,-70.41],[-61.35,-70.56],[-62.03,-70.9],[-60.93,-71.18],[-62.11,-71.64],[-61.14,-71.53],[-60.8,-71.78],[-62.44,-71.92],[-60.69,-72],[-61.07,-72.19],[-60.64,-72.43],[-61.42,-72.65],[-60.55,-72.66],[-60.76,-73.07],[-59.95,-72.9],[-60.73,-73.4],[-62.07,-73.13],[-60.8,-73.58],[-61.86,-74.03],[-61.13,-74.16],[-61.98,-74.24],[-60.65,-74.25],[-60.98,-74.5],[-62.36,-74.4],[-61.79,-74.78],[-63.27,-74.67],[-63.08,-74.91],[-64.09,-75],[-63.04,-75.15],[-64.43,-75.32],[-63.16,-75.41],[-70.01,-76.69],[-77.69,-76.49],[-75.53,-77.54],[-72.72,-77.58],[-74.06,-78.14],[-80.77,-77.67],[-81.67,-77.84],[-77.33,-78.6],[-80.3,-78.85],[-83.77,-77.97],[-82.94,-78.47],[-83.89,-78.42],[-80.49,-79.58],[-80.43,-79.26],[-76.07,-79.44],[-76.63,-79.94],[-79.69,-79.98],[-76.27,-80.08],[-74.95,-80.77],[-75.55,-80.89],[-70.82,-80.61],[-62.21,-81.59],[-66.26,-81.95],[-65.07,-82.41],[-60.4,-82.17],[-62.8,-82.52],[-62.18,-83.03],[-61.07,-82.91],[-61.85,-83.37],[-60.95,-83.48],[-53.92,-82.21],[-54.3,-82.19],[-48.21,-81.9]]],[[[-44.77,82.08],[-46.88,82.36],[-47.75,82.63],[-44.42,82.38],[-45.07,82.22],[-44.77,82.08]]],[[[-41.13,65.1],[-40.36,64.36],[-41.57,64.27],[-40.56,64.11],[-40.53,63.7],[-41.49,63.86],[-40.75,63.52],[-41.9,63.47],[-41.43,63.13],[-42.21,63.11],[-41.75,62.84],[-43.15,62.76],[-42.16,62.39],[-42.97,62.52],[-42.12,62.01],[-43.08,61.6],[-42.53,61.53],[-42.42,61.4],[-43.25,61.34],[-42.63,61.1],[-43.61,61.13],[-42.71,61.06],[-43.53,60.84],[-42.75,60.69],[-44.19,60.64],[-43.09,60.1],[-45.17,60.09],[-44.76,60.2],[-44.47,60.57],[-45.17,60.13],[-44.63,60.74],[-45.88,60.52],[-45.26,60.91],[-46.21,60.75],[-45.51,60.98],[-45.2,61.19],[-45.51,61.25],[-45.62,61.02],[-45.79,60.96],[-46.03,60.91],[-46.07,60.94],[-45.62,61.14],[-45.71,61.33],[-48.23,60.82],[-47.69,61.01],[-48.4,60.99],[-47.91,61.33],[-49.3,61.56],[-48.59,61.64],[-49.15,61.73],[-48.78,61.99],[-49.43,61.82],[-48.84,62.08],[-49.64,61.99],[-49.29,62.27],[-50.32,62.51],[-49.7,63.06],[-50.39,62.79],[-50.15,63.02],[-50.61,63.1],[-50.06,63.23],[-51.1,63.33],[-50.28,63.4],[-51.22,63.44],[-50.5,63.67],[-51.42,63.54],[-50.92,63.94],[-51.66,64.01],[-50.05,64.2],[-50.36,64.36],[-51.44,64.08],[-51.77,64.19],[-50.18,64.45],[-50.92,64.6],[-50.48,64.71],[-50.15,64.49],[-49.59,64.34],[-50,64.86],[-50.98,65.22],[-50.64,64.76],[-52.16,64.26],[-52.13,64.71],[-51.24,65.02],[-52.18,64.8],[-52,65.32],[-52.57,65.32],[-50.55,65.71],[-52.49,65.39],[-53.26,65.75],[-51.74,65.93],[-51.73,66.08],[-53.47,65.98],[-50,66.98],[-53.45,66.1],[-53.12,66.29],[-53.62,66.51],[-52.42,66.55],[-53.46,66.64],[-52.23,66.84],[-53.96,67.08],[-52.19,67.37],[-51.18,67.12],[-50.35,67.19],[-51.52,67.35],[-51.11,67.43],[-53.19,67.34],[-53.88,67.23],[-52.79,67.75],[-50.2,67.47],[-50.87,67.6],[-49.94,67.7],[-52.34,67.82],[-51.61,67.98],[-52.82,67.8],[-53.73,67.54],[-53.18,68.05],[-52.59,67.94],[-52.21,67.93],[-52.06,67.98],[-53.31,68.19],[-50.57,67.91],[-50.15,67.95],[-51.44,68.2],[-50.96,68.19],[-51.38,68.26],[-51.16,68.29],[-51.17,68.41],[-50.77,68.5],[-50.85,68.51],[-52.45,68.18],[-53.39,68.33],[-50.86,68.62],[-51.29,68.75],[-51.08,69.13],[-50.22,68.96],[-50.69,69.13],[-50.37,69.34],[-51.12,69.21],[-50.2,69.52],[-50.88,69.51],[-50.24,70.04],[-54.63,70.65],[-50.53,70.36],[-51.45,70.73],[-50.85,70.87],[-51.96,71.02],[-51.21,70.96],[-50.92,71.02],[-52.24,71.13],[-51.64,71.37],[-52.56,71.18],[-51.36,71.49],[-52.99,71.42],[-51.78,71.6],[-51.66,71.73],[-52.17,71.61],[-53.27,71.71],[-52.9,71.84],[-52.68,72.01],[-53.36,71.78],[-53.55,72.36],[-53.87,72.36],[-53.4,71.85],[-54.1,71.71],[-53.91,71.45],[-55.51,71.45],[-55.9,71.68],[-54.85,71.91],[-54.56,72.03],[-54.38,72.22],[-55.27,71.93],[-55.61,71.99],[-54.68,72.37],[-55.65,72.45],[-54.29,72.48],[-55.7,73.07],[-55.09,73.37],[-56.07,73.65],[-55.61,73.72],[-56.41,74.07],[-56.12,74.28],[-57.31,74.1],[-56.14,74.49],[-58.7,75.35],[-58.21,75.44],[-58.41,75.72],[-63.37,76.38],[-68.43,76.08],[-69.64,76.38],[-67.99,76.68],[-71.38,77.02],[-66.36,77.12],[-69.1,77.27],[-66.05,77.49],[-69.22,77.45],[-73.06,78.16],[-65.79,79.14],[-64.83,79.53],[-65.04,80.02],[-63.78,80.15],[-67.49,80.32],[-63.66,81.15],[-62.78,80.76],[-63.37,81.16],[-61.08,81.12],[-61.31,81.37],[-60.77,81.49],[-61.45,81.75],[-60.53,81.91],[-56.54,81.34],[-59.47,82],[-54.44,82.37],[-53.56,82.12],[-53.81,81.59],[-53.68,81.53],[-53.47,81.51],[-52.96,82.04],[-49.92,81.61],[-49.61,81.65],[-51.07,81.93],[-49.44,81.93],[-51.11,82.51],[-44.66,81.75],[-44.17,81.84],[-44.93,82],[-44.4,82.11],[-44.56,82.29],[-42.3,82.22],[-45.77,82.77],[-39.76,82.4],[-46.89,82.96],[-43.36,82.92],[-45.52,83.12],[-45.41,83.16],[-38.62,82.75],[-39.15,82.98],[-36.88,83.15],[-38.87,83.43],[-30.65,83.6],[-25.65,83.3],[-33.44,83.16],[-32.48,83.04],[-35.62,82.91],[-25.22,83.17],[-24.75,83],[-25.9,82.78],[-21.32,82.62],[-31.58,82.22],[-29.91,82.1],[-32.81,81.79],[-24.62,81.99],[-26.72,81.53],[-26.39,81.43],[-23.2,82.02],[-21.06,81.91],[-23.86,80.58],[-19.71,81.7],[-18.98,81.61],[-19.46,81.37],[-15.29,81.84],[-11.38,81.48],[-15.42,80.65],[-17.24,80.72],[-18.32,80.56],[-19.47,80.67],[-20.85,80.56],[-15.76,80.42],[-20.17,80.1],[-20.42,79.84],[-19.21,79.71],[-19.6,79.18],[-19.28,79.39],[-18.88,79.23],[-20.97,78.78],[-21.97,77.68],[-20.94,77.97],[-19.13,77.68],[-20.93,77.52],[-18.54,77.28],[-18.51,76.74],[-22.74,76.7],[-19.67,76.14],[-21.98,75.99],[-19.35,75.73],[-19.59,75.14],[-22.26,75.67],[-20.52,75.14],[-22.41,75.15],[-18.97,74.48],[-22.47,74.31],[-21.83,73.65],[-21.78,74.05],[-20.28,73.88],[-20.54,73.45],[-22.31,73.25],[-24.03,73.7],[-22.66,73.55],[-22.18,73.63],[-25.69,73.96],[-24.68,73.52],[-27.33,73.5],[-26.4,73.24],[-27.73,73.13],[-25.05,73.08],[-27.39,72.85],[-25.26,72.81],[-24.6,72.55],[-25.91,72.42],[-22.5,71.9],[-23.12,71.63],[-21.89,71.74],[-22.51,71.55],[-22.48,71.26],[-21.76,71.51],[-21.72,71.12],[-22.33,71.06],[-21.7,71.08],[-21.93,70.81],[-21.48,70.54],[-22.38,70.45],[-22.48,70.86],[-22.63,70.45],[-23.35,70.44],[-24.64,71.36],[-28.62,72.13],[-27.33,71.72],[-28.49,71.57],[-25.42,71.28],[-27.91,71.14],[-27.62,70.95],[-29.23,70.45],[-26.32,70.38],[-28.59,70.09],[-27.47,69.96],[-25.31,70.41],[-22.16,70.07],[-26.33,68.68],[-29.38,68.2],[-31.58,68.08],[-32.49,68.62],[-32.04,67.93],[-33.2,67.69],[-34.72,66.34],[-35.83,66.44],[-35.59,66.11],[-37.18,65.77],[-37.85,65.89],[-37.17,66.32],[-37.85,66.44],[-38,65.94],[-38.48,66.02],[-38.22,65.65],[-39.34,65.75],[-40.22,65.51],[-39.79,65.41],[-39.94,65.1],[-41.13,65.1]]],[[[-25.71,73.19],[-24.46,73.43],[-23.21,73.23],[-24.97,73.33],[-25.01,73.31],[-22.89,73.16],[-25.71,73.19]]],[[[-25.79,70.61],[-26,70.54],[-28.14,70.46],[-25.7,71.09],[-25.28,70.69],[-25.79,70.61]]],[[[-22.26,72.45],[-22.76,72.44],[-22.05,72.27],[-22.52,72.13],[-24.49,72.83],[-21.93,72.41],[-22.26,72.45]]],[[[-17.34,79.96],[-18.17,79.69],[-19.41,79.85],[-17.74,80.09],[-17.34,79.96]]],[[[-14.94,66.23],[-14.6,65.95],[-14.89,65.76],[-13.69,65.56],[-14.03,65.2],[-13.51,65.07],[-14.23,65.04],[-13.7,64.93],[-14.93,64.26],[-18.73,63.4],[-21.04,63.95],[-22.69,63.81],[-21.51,64.65],[-24.06,64.89],[-21.83,65.04],[-22.56,65.17],[-21.7,65.45],[-24.54,65.51],[-23.29,65.68],[-23.87,65.88],[-23.21,65.84],[-23.81,66.01],[-23.46,66.2],[-22.36,65.91],[-22.95,66.47],[-21.33,66.01],[-21.78,65.77],[-21.09,65.17],[-20.18,66.13],[-19.46,65.73],[-18.78,66.19],[-18.06,65.65],[-18.3,66.18],[-17.55,65.91],[-16.43,66.14],[-16.54,66.51],[-14.56,66.38],[-14.94,66.23]]],[[[43.25,11.47],[44.59,10.38],[50.8,11.99],[51.29,11.83],[51.01,10.43],[51.42,10.45],[50.93,10.33],[50.83,9.42],[47.95,4.46],[40.86,-1.96],[39.19,-4.68],[38.78,-6.05],[39.55,-7],[39.39,-8.9],[39.69,-10.04],[40.65,-10.69],[40.58,-15.49],[39.09,-16.98],[36.83,-17.88],[36.41,-18.78],[35.13,-19.71],[34.55,-19.58],[35.39,-22.49],[35.55,-22.18],[35.49,-24.11],[32.49,-25.97],[32.96,-26.11],[32.39,-28.54],[28.55,-32.56],[24.83,-34.21],[22.58,-33.99],[20,-34.82],[18.8,-34.09],[18.45,-34.34],[17.84,-32.82],[18.31,-32.57],[18.21,-31.73],[15.08,-26.7],[14.51,-22.55],[11.8,-17.96],[11.75,-15.8],[12.52,-13.41],[13.64,-12.25],[13.85,-10.98],[13,-9.09],[13.38,-8.35],[12.28,-6.11],[13.18,-5.86],[12.4,-6.01],[12.13,-5.01],[9.62,-2.38],[9.52,-1.93],[9.26,-1.84],[9.22,-1.58],[9.02,-1.32],[8.98,-1.23],[9.02,-1.3],[9.16,-1.47],[9.26,-1.54],[9.28,-1.68],[9.56,-1.61],[9.03,-1.3],[8.7,-0.59],[9.01,-0.87],[9.35,0.36],[9.49,0.1],[10.03,0.19],[9.31,0.54],[9.85,1.07],[9.35,1.18],[9.81,1.93],[9.75,4.14],[9.21,3.96],[8.18,4.99],[8.29,4.55],[7.07,4.76],[6.88,4.39],[6.79,4.82],[6.72,4.83],[6.87,4.36],[5.95,4.34],[5.29,5.91],[5.04,5.77],[4.41,6.36],[3.44,6.41],[3.38,6.44],[3.86,6.6],[3.77,6.62],[1.27,6.13],[-2.06,4.74],[-3.8,5.38],[-7.59,4.35],[-9.28,5.15],[-12.96,7.91],[-13.29,8.5],[-13.03,8.38],[-12.88,8.69],[-13.17,8.53],[-13.56,9.79],[-15.5,11.34],[-15.01,11.98],[-15.96,11.73],[-15.71,12.02],[-16.36,12.09],[-16.06,12.35],[-16.8,12.43],[-15.63,12.54],[-15.39,12.81],[-16.75,12.57],[-16.68,13.5],[-16.42,13.21],[-16.16,13.43],[-15.34,13.44],[-15.3,13.46],[-15.29,13.5],[-15.56,13.53],[-16.16,13.45],[-16.32,13.34],[-16.52,13.36],[-16.75,13.95],[-16.58,13.99],[-16.36,14.17],[-16.73,14.06],[-16.78,13.84],[-17.54,14.76],[-16.54,15.77],[-16.02,17.96],[-16.54,19.38],[-16.2,20.23],[-16.92,21.16],[-17.1,20.84],[-16.96,21.83],[-15.94,23.77],[-14.9,24.71],[-14.47,26.19],[-13.56,26.75],[-12.95,27.93],[-11.49,28.33],[-10.25,29.3],[-9.66,30.13],[-9.85,31.4],[-9.26,32.58],[-6.82,34.04],[-5.91,35.8],[-5.28,35.91],[-4.38,35.15],[-2.97,35.45],[-1.96,35.08],[1.04,36.49],[3.87,36.92],[5.3,36.64],[6.42,37.09],[8.5,36.9],[9.74,37.35],[10.36,36.73],[11.14,36.87],[10.48,36.22],[11.16,35.24],[10.01,34.17],[10.33,33.7],[12.3,32.84],[15.18,32.4],[15.76,31.39],[18.97,30.28],[20.04,30.82],[20.07,32.18],[21.72,32.95],[24.98,31.97],[25.19,31.53],[29.03,30.83],[31.1,31.61],[33.13,31.05],[34.71,31.95],[35.99,34.55],[35.79,36.32],[36.19,36.8],[34.69,36.81],[32.8,36.03],[30.69,36.89],[30.43,36.23],[29.67,36.12],[28.45,36.88],[28.04,36.56],[27.4,36.67],[28.33,37.04],[27.26,36.96],[27.62,37.27],[27.01,37.67],[27.24,37.99],[26.23,38.27],[26.4,38.68],[26.67,38.31],[27.16,38.45],[26.72,38.65],[26.94,39.57],[26.07,39.47],[26.19,40],[27.76,40.54],[29.05,40.37],[28.79,40.55],[29.94,40.74],[29.25,40.81],[29.17,41.23],[31.23,41.09],[33.32,42.02],[35.02,42.09],[36.4,41.26],[38.33,40.92],[40.2,40.94],[41.77,41.91],[41.42,42.74],[36.58,45.19],[37.74,45.31],[37.94,46.02],[38.58,46.09],[37.73,46.67],[38.59,46.66],[39.26,47.26],[35.9,46.65],[35.16,46.13],[34.98,46.08],[35.34,46.34],[35.19,46.51],[34.81,46.17],[35.33,45.37],[36.64,45.35],[33.94,44.38],[33.37,44.58],[33.54,45.12],[32.48,45.41],[33.69,45.86],[33.61,46.15],[31.79,46.29],[31.51,46.59],[32.32,46.46],[32.65,46.65],[32.02,46.63],[31.98,47.01],[31.87,47.03],[31.9,47.09],[31.83,47.19],[31.76,47.22],[31.74,47.26],[31.89,46.64],[31.44,46.8],[29.63,45.82],[29.61,44.85],[28.87,44.94],[28.58,43.48],[27.45,42.48],[28.99,41],[27.52,40.99],[26.18,40.05],[26.79,40.66],[24.42,40.95],[23.69,40.7],[24.39,40.15],[23.34,40.23],[23.7,39.91],[22.89,40.39],[22.91,40.64],[22.58,40.47],[23.34,39.18],[22.94,39.36],[23.07,39.04],[22.53,38.86],[23.95,38.29],[24.09,37.79],[23.02,37.93],[23.53,37.46],[22.73,37.57],[23.2,36.43],[22.69,36.81],[22.49,36.39],[22.15,37.02],[21.71,36.82],[21.13,37.95],[21.85,38.34],[22.87,37.94],[23.22,38.16],[22.4,38.45],[21.09,38.34],[20.73,38.81],[21.16,39],[19.29,40.42],[19.59,41.82],[15.96,43.5],[14.84,45.11],[14.33,45.35],[13.9,44.77],[13.5,45.5],[13.81,45.61],[13.12,45.77],[12.15,45.31],[12.39,44.22],[13.62,43.56],[14.74,42.08],[16.14,41.92],[15.93,41.48],[18.52,40.14],[18.35,39.8],[16.91,40.45],[16.49,39.78],[17.21,39.03],[16.06,37.93],[15.64,38.01],[16.22,38.86],[15.62,40.08],[11.11,42.39],[10.18,43.96],[8.76,44.43],[6.18,43.04],[5.03,43.56],[3.24,43.22],[3.19,41.89],[0.71,40.82],[-0.32,39.52],[0.23,38.74],[-2.13,36.74],[-4.4,36.72],[-5.61,36.01],[-6.85,37.3],[-9,37.02],[-8.94,38.48],[-8.8,38.43],[-8.61,38.42],[-9.25,38.67],[-9.11,38.66],[-8.94,38.78],[-8.77,39.1],[-9.5,38.81],[-8.57,40.76],[-8.62,42.34],[-9.22,43.16],[-7.69,43.79],[-1.92,43.32],[-1.04,44.67],[-1.09,45.57],[-0.53,44.89],[-0.49,45],[-0.8,45.48],[-1.25,45.71],[-1.11,46.3],[-2.12,46.82],[-2.16,47.27],[-1.73,47.21],[-4.37,47.81],[-4.73,48.04],[-4.19,48.31],[-4.74,48.55],[-1.36,48.64],[-1.94,49.72],[-1.12,49.35],[-0.22,49.28],[0.46,49.47],[0.08,49.53],[1.67,50.19],[1.73,50.94],[4.32,51.28],[3.45,51.55],[4.28,51.45],[3.86,51.82],[5.59,53.3],[7.19,53.25],[7.1,53.6],[7.95,53.72],[8.5,53.36],[8.65,53.89],[9.27,53.87],[9.57,53.6],[9.83,53.54],[8.6,54.31],[9.01,54.51],[8.1,56.1],[8.12,56.55],[8.21,56.71],[8.67,56.48],[9.06,56.81],[9.06,56.57],[9.33,56.53],[9.2,56.94],[9.92,57.06],[8.68,56.95],[8.56,56.59],[8.25,56.7],[8.59,57.11],[9.41,57.17],[9.97,57.59],[10.2,57.6],[10.54,57.74],[10.65,57.74],[10.35,57.01],[9.99,57.09],[9.93,57.06],[10.34,56.72],[10.15,56.72],[9.81,56.64],[10.96,56.44],[9.55,55.71],[9.76,54.9],[9.59,54.93],[9.44,54.81],[9.97,54.76],[9.84,54.48],[11.14,54.39],[10.75,54.04],[11.45,53.91],[13.03,54.43],[13.82,53.85],[14.59,53.6],[13.75,54.15],[14.41,53.92],[18.15,54.84],[19.38,54.38],[21.09,55.72],[20.53,54.96],[21.23,54.94],[20.99,56.55],[21.7,57.56],[22.6,57.76],[23.63,56.97],[24.4,57.26],[24.55,58.33],[23.74,58.34],[23.47,59.21],[30.25,59.97],[28.62,60.38],[28.69,60.74],[22.91,59.81],[23.25,59.92],[23.33,60.01],[23.08,60.36],[21.41,60.58],[21.72,61.53],[21.07,62.6],[21.5,63.21],[25.44,64.97],[24.71,65.91],[21.76,65.73],[22.2,65.55],[21.28,65.35],[21.59,65.07],[21.04,64.83],[21.6,64.44],[18.46,62.86],[17.69,62.99],[18.06,62.6],[17.33,62.49],[17.65,62.23],[17.06,61.58],[17.19,60.69],[19.07,59.75],[18.01,59.41],[18.65,59.33],[17.89,58.86],[17.66,59.17],[16.18,58.63],[16.94,58.49],[16.41,58.48],[16.8,58.32],[16.71,57.75],[16.42,57.89],[16.69,57.47],[15.85,56.09],[14.72,56.17],[14.18,55.39],[12.83,55.38],[13.05,55.69],[12.45,56.3],[12.93,56.55],[11.71,57.7],[11.88,58.33],[11.22,58.35],[11.12,59.01],[11.44,59],[10.74,59.22],[10.74,59.9],[10.22,59.72],[10.31,59.06],[9.54,59.12],[8.12,58.1],[7.01,57.99],[5.65,58.55],[5.55,59.04],[5.72,58.87],[6.23,58.84],[6.63,59.05],[5.88,59.07],[6.54,59.56],[5.51,59.28],[5.2,59.55],[7.11,60.51],[5.74,59.99],[5.74,60.39],[5.14,60.35],[5.75,60.72],[5.68,60.76],[5.53,60.63],[5.22,60.57],[4.93,60.8],[5.43,60.63],[5.54,60.88],[5.02,61.05],[7.11,60.86],[7.69,61.23],[5.19,61.11],[5.63,61.36],[4.95,61.42],[5.8,61.46],[4.99,61.75],[5.39,61.91],[5.9,61.74],[6.82,61.88],[6.48,61.83],[5.96,61.92],[5.43,61.94],[5.16,61.9],[5.08,62.19],[6.37,62.06],[5.93,62.23],[6.71,62.45],[6.96,62.1],[7.02,62.09],[7.14,62.12],[7.19,62.1],[7.42,62.24],[6.79,62.48],[6.24,62.45],[6.67,62.49],[6.25,62.57],[8.15,62.69],[7.36,62.7],[7.68,62.79],[7.31,62.74],[6.97,62.73],[6.95,62.73],[7.24,63.01],[8.55,62.66],[7.88,63.01],[8.7,62.82],[8.17,63.12],[9.7,63.64],[9.83,63.33],[10.91,63.46],[11.5,64.02],[9.98,63.49],[9.55,63.77],[12.93,65.31],[12.25,65.23],[12.78,65.46],[12.36,65.6],[12.68,65.93],[13.18,65.86],[12.67,66.06],[13.82,66.15],[14.14,66.33],[13.04,66.18],[13.53,66.31],[12.97,66.52],[13.1,66.54],[13.23,66.45],[13.36,66.46],[13.73,66.6],[13.23,66.71],[13.99,66.79],[13.54,66.92],[15.74,67.17],[14.33,67.24],[15.9,67.56],[14.77,67.82],[15.98,68.25],[16.04,68.03],[16.24,67.88],[16.48,67.8],[16.21,68],[16.69,68.07],[16.1,68.28],[17.87,68.39],[16.46,68.51],[17.68,68.66],[17.23,68.76],[17.78,68.75],[17.43,68.9],[18.16,69.46],[19.48,69.22],[18.94,69.62],[19.78,69.8],[19.53,69.4],[20.29,69.97],[19.92,69.27],[21.29,70.02],[22.1,69.75],[21.8,70.04],[22.1,70.12],[21.21,70.21],[21.55,70.32],[23.33,69.95],[24.72,70.62],[24.25,70.78],[24.67,70.98],[25.93,70.86],[25.07,70.5],[25.29,70.46],[24.98,70.23],[25,70.06],[26.61,70.95],[26.55,70.35],[27.63,70.8],[27.22,71.02],[28.21,71.08],[28.55,70.97],[27.65,70.61],[28.3,70.7],[27.85,70.48],[28.34,70.52],[28.16,70.38],[28.17,70.14],[28.01,70.07],[28.18,70.12],[28.79,70.87],[31.06,70.37],[28.6,70.16],[29.69,69.97],[29.49,69.66],[32.05,69.96],[33.13,69.73],[32.11,69.75],[32.5,69.52],[32.19,69.43],[33.52,69.43],[33.24,69.27],[33.54,69.21],[33.06,69.08],[33.02,68.95],[33.06,69.06],[33.43,69.1],[33.72,69.34],[35.87,69.19],[41.04,67.68],[41.18,66.81],[38.55,66.05],[34.48,66.54],[32.93,67.1],[32.38,67.16],[31.85,67.15],[34.85,65.9],[34.3,65.39],[35.01,64.74],[34.74,64.56],[37.44,63.79],[38.02,64.31],[36.44,64.92],[37.01,65.17],[38.39,64.84],[38.05,64.65],[40.52,64.54],[39.75,65.55],[42.2,66.53],[44.18,65.86],[44.52,66.92],[43.77,67.28],[44.41,68.06],[43.32,68.67],[46.53,68.13],[46.7,67.82],[44.91,67.37],[46.41,66.75],[47.58,66.87],[47.85,67.6],[49.11,67.64],[48.59,67.93],[52.4,68.34],[52.73,68.47],[52.33,68.63],[53.88,68.97],[54.56,69],[53.59,68.91],[54.03,68.85],[53.94,68.41],[53.21,68.27],[54.83,68.17],[58.88,69],[59.42,68.76],[59.09,68.42],[59.67,68.34],[60.97,68.91],[60.14,69.58],[60.93,69.87],[64.13,69.55],[68.29,68.19],[69.22,68.96],[66.8,69.59],[67.33,70.76],[66.62,71.06],[68.35,71.68],[69.35,72.95],[71.56,72.92],[72.84,72.71],[72.87,72.28],[71.8,71.48],[72.84,70.86],[72.44,70.29],[72.58,68.94],[73.54,68.58],[73.65,68.46],[73.09,68.21],[73.11,67.69],[71.3,66.95],[71.58,66.66],[68.97,66.81],[72.08,66.24],[74.73,67.69],[74.33,68.39],[74.63,68.77],[76.58,68.98],[77.33,68.52],[77.08,67.79],[77.69,67.55],[79.05,67.57],[77.49,67.75],[78.17,68.27],[77.65,68.91],[73.76,69.17],[73.52,69.75],[74.32,70.67],[73.02,71.43],[74.99,72.14],[74.75,72.82],[75.71,72.57],[75.26,71.37],[76.91,71.07],[78.41,70.9],[79.04,70.94],[79.11,71],[76,71.91],[78.11,71.88],[77.38,72.11],[78.5,72.41],[83.25,71.73],[82.27,71.28],[82.08,70.57],[82.35,70.2],[82.16,70.57],[82.9,71],[82.64,70.18],[83.11,70.07],[82.95,70.33],[83.77,70.48],[83.12,71.11],[83.62,71.63],[80.7,72.55],[80.81,72.97],[80.23,73.18],[80.51,73.57],[87.08,73.87],[85.79,73.48],[85.83,73.33],[86.78,73],[85.84,73.44],[87.16,73.61],[87.66,73.89],[85.91,74.35],[87.26,74.35],[86.78,74.56],[85.74,74.64],[87.79,75.03],[87.02,75.16],[87.95,75.1],[94.16,75.94],[92.83,75.97],[94,76.05],[93.69,76.13],[96.46,75.87],[98.82,76.27],[99.75,76.05],[99.57,75.78],[99.87,76.11],[98.82,76.49],[102.25,76.38],[100.86,76.87],[104.06,77.74],[106.29,77.37],[104.14,77.09],[107.5,76.92],[106.42,76.51],[111.09,76.76],[113.89,75.85],[113.56,75.54],[113.62,75.66],[113.07,75.68],[113.14,75.71],[112.56,75.85],[112.34,75.85],[113.72,75.41],[107.15,73.62],[105.07,72.77],[110.92,73.7],[109.53,73.78],[110.02,74.01],[112.85,73.99],[113.43,73.63],[113.13,73.45],[113.49,72.96],[113.12,72.86],[113.18,72.73],[113.5,72.65],[114.09,72.6],[113.16,72.82],[113.54,72.98],[113.56,73.25],[114.04,73.35],[113.47,73.5],[118.45,73.59],[119,73.49],[118.39,73.24],[119.72,72.96],[122.73,72.83],[122.31,72.94],[123.23,72.93],[123.67,73.2],[123.37,73.66],[124.38,73.81],[129.44,73.03],[128.13,72.79],[129.2,72.66],[127.91,72.67],[129.49,72.13],[127.67,72.43],[129.54,71.72],[128.82,71.66],[129.63,71.09],[131.04,70.74],[132.72,71.95],[134.67,71.26],[135.62,71.62],[137.81,71.12],[138.36,71.32],[137.83,71.39],[138.1,71.58],[140.03,71.47],[139.34,71.95],[140.2,72.21],[139.09,72.25],[141.11,72.59],[140.73,72.9],[146.85,72.35],[144.11,72.28],[144.42,72.18],[145.07,72.26],[146.93,72.31],[145.97,71.86],[146.35,72.13],[145.61,72.24],[145.81,71.93],[144.97,71.98],[144.89,71.68],[146.04,71.79],[147.2,72.33],[149.61,72.15],[150.07,71.89],[148.83,71.68],[152.54,70.79],[159.24,70.83],[160.09,70.31],[159.77,69.76],[161.01,69.58],[160.96,69.11],[161.42,68.98],[160.82,68.53],[161.57,68.92],[161.7,69.5],[164.03,69.77],[167.8,69.78],[168.29,69.24],[170.63,68.75],[171.16,69.04],[170.16,69.61],[170.48,70.14],[176.13,69.89],[180,68.98],[180,65.07],[178.56,64.59],[176.94,65.08],[176.31,65.06],[177.3,64.82],[176.05,64.96],[174.44,64.69],[177.49,64.77],[179.56,62.62],[179.07,62.29],[176.99,62.87],[177.27,62.59],[172.72,61.43],[170.52,60.45],[170.27,59.92],[169.21,60.63],[167.02,60.43],[166.25,59.83],[166.37,60.5],[164.84,59.79],[163.63,60.05],[163.26,59.08],[161.99,58.09],[163.33,57.71],[162.78,56.76],[163.24,56.73],[163.37,56.18],[162.41,56.38],[161.76,55.55],[162.13,54.76],[160.05,54.18],[160.06,53.1],[158.44,53.03],[158.29,51.97],[156.67,50.86],[155.55,55.28],[155.95,56.62],[157,57.43],[156.75,57.73],[158.34,57.95],[161.94,60.42],[163.75,60.88],[164.13,62.26],[165.65,62.46],[163.4,62.58],[162.98,61.8],[163.33,61.66],[162.42,61.68],[160.19,60.58],[160.44,61.04],[159.78,61.24],[160.35,61.94],[157.03,61.65],[154.22,59.87],[154.14,59.46],[155.19,59.18],[151.35,58.83],[151.09,59.1],[152.32,59.21],[149.38,59.77],[148.93,59.23],[143.16,59.38],[135.22,54.89],[136.82,54.65],[136.76,53.78],[137.06,54.15],[137.74,54.32],[137.34,53.53],[138.58,54],[138.44,53.51],[138.77,54.02],[138.64,54.3],[139.77,54.3],[141.41,53.3],[140.71,53.11],[141.56,52.16],[140.69,51.31],[140.18,48.46],[135.14,43.51],[133.16,42.69],[131.82,43.34],[129.77,41.76],[129.72,40.83],[127.52,39.75],[127.39,39.2],[128.35,38.7],[129.43,37.06],[129.59,36.02],[129,35.05],[127.72,34.99],[126.52,34.29],[126.25,35.12],[126.87,36.06],[126.13,36.76],[126.5,37.05],[126.85,36.75],[127.04,36.99],[126.69,37.84],[125.6,38.03],[125.74,37.93],[125.35,37.68],[124.67,38.13],[125.66,38.63],[125.14,38.8],[125.44,39.58],[124.64,39.59],[124.37,40.1],[121.15,38.73],[121.94,39.4],[121.22,39.53],[122.3,40.5],[121.87,41],[121.2,40.93],[118.93,39.13],[117.72,39.11],[117.72,38.38],[118.95,38.1],[119.15,37.18],[120.74,37.83],[122.69,37.41],[122.51,36.9],[120.1,36.23],[120.3,35.97],[119.19,35],[120.26,34.31],[120.83,32.7],[121.93,31.73],[119.61,32.35],[121.98,30.91],[120.81,30.3],[120.7,30.39],[120.48,30.4],[120.43,30.39],[120.38,30.27],[120.26,30.3],[120.15,30.2],[121.38,30.33],[122.13,29.9],[121.43,29.47],[121.92,29.64],[121.99,29.26],[121.41,29.16],[121.61,28.72],[121.14,28.85],[121.61,28.27],[120.56,28.11],[120.87,27.88],[120.13,26.65],[119.58,26.79],[119.95,26.36],[119.09,26.15],[119.7,26],[119.65,25.36],[119.31,25.6],[118.62,24.55],[117.79,24.47],[118.13,24.26],[116.52,23.42],[116.49,22.94],[114.7,22.79],[114.3,22.26],[113.65,22.76],[113.83,23.12],[113.42,23.1],[113.48,22.16],[113.17,22.58],[113.4,22.18],[112.91,21.86],[110.36,21.44],[110.28,20.25],[109.92,20.24],[109.94,21.49],[109.57,21.76],[109.14,21.4],[108.48,21.95],[108.47,21.56],[106.64,21.02],[106.81,20.68],[105.61,18.99],[106.43,18.12],[106.29,17.77],[108.95,15.25],[109.47,12.66],[109.02,11.36],[107.27,10.38],[106.75,10.67],[106.65,9.97],[106.47,10.06],[106.36,10.22],[106.29,10.26],[106.46,10.04],[106.7,9.9],[106.67,9.84],[106.59,9.82],[106.14,10.23],[106.11,10.23],[106.54,9.59],[105.82,10.01],[106.19,9.37],[104.83,8.57],[105.04,10.06],[103.62,10.5],[103.56,11.15],[103.13,10.88],[103.08,11.73],[102.3,12.43],[100.86,12.65],[101,13.5],[99.96,13.31],[99.23,9.28],[99.85,9.29],[100.42,7.17],[101.56,6.84],[103.22,5.22],[103.44,2.92],[104.28,1.37],[103.97,1.65],[103.52,1.27],[101.29,2.85],[100.1,6.53],[98.66,8.38],[98.28,8.23],[98.89,11.69],[97.79,14.88],[97.74,16.56],[97.37,16.48],[96.88,17.46],[96.68,16.57],[96.17,16.77],[96.32,16.42],[95.42,15.72],[95.36,16.15],[94.85,15.79],[94.99,16.25],[94.57,15.94],[94.73,16.52],[94.24,15.98],[94.62,17.55],[94.07,19.39],[93.93,18.86],[93.48,19.35],[93.98,19.37],[93.74,19.93],[93.13,19.83],[93.07,20.55],[92.9,20.14],[92.77,20.2],[92.05,21.17],[91.91,22.42],[91.49,22.9],[90.94,22.59],[90.63,23.6],[90.25,23.47],[90.62,22.36],[90.22,21.81],[90.01,22.49],[89.59,21.7],[89.63,22.34],[89.41,21.72],[89.04,22.14],[88.73,21.56],[88.76,22.13],[88.66,22.21],[88.25,21.55],[88.2,22.17],[87.91,22.42],[88.16,22.09],[86.92,21.33],[87.04,20.7],[86.43,20],[85.27,19.78],[85.12,19.48],[85.58,19.69],[82.39,17.13],[82.31,16.58],[80.28,15.7],[79.86,10.29],[79.29,10.25],[78.91,9.47],[79.34,9.32],[79.45,9.16],[78.41,9.1],[77.51,8.08],[76.54,8.91],[73.45,16.07],[72.65,19.85],[72.95,20.76],[72.56,21.39],[73.13,21.76],[72.5,21.98],[72.92,22.27],[72.4,22.37],[72.15,22.28],[72.06,21.17],[70.54,20.81],[68.94,22.32],[70.18,22.56],[70.5,23.1],[69.72,22.75],[68.87,23.02],[68.41,23.51],[68.82,23.88],[67.48,23.89],[66.44,25.6],[61.75,25.01],[57.77,25.64],[57.31,25.78],[56.81,27.14],[54.79,26.5],[53.72,26.71],[51.4,27.93],[50.06,30.2],[49.53,30.02],[49.03,30.52],[48.9,30.03],[47.93,30.11],[48.18,29.54],[47.7,29.36],[48.1,29.35],[48.83,27.61],[50.16,26.66],[49.99,26],[50.77,24.73],[50.98,25.98],[51.57,25.9],[51.28,24.3],[51.93,23.96],[54.12,24.14],[56.18,26.25],[56.5,26.36],[56.61,24.5],[58.76,23.54],[59.82,22.28],[58.52,20.42],[57.86,20.26],[57.84,19.02],[56.81,18.75],[56.36,17.94],[55.45,17.84],[55.03,17.01],[52.53,16.45],[52.23,15.62],[48.7,14.04],[43.95,12.6],[43.25,13.21],[42.31,17.44],[40.74,19.78],[39.17,21.11],[39.14,22.4],[38.45,23.78],[37.43,24.37],[35.22,28.05],[34.57,28.09],[35,29.53],[34.25,27.73],[33.23,28.57],[32.57,30.01],[32.63,28.97],[35.79,23.9],[35.48,23.92],[35.68,22.97],[36.9,22.07],[37.43,18.86],[38.58,18.08],[39.72,15.09],[39.88,15.5],[43.09,12.82],[43.41,12.06],[42.51,11.57],[43.25,11.47]],[[35.43,22.98],[35.21,22.79],[35.62,23.14],[35.43,22.98]],[[33.72,21.73],[33.56,21.71],[33.87,21.75],[33.72,21.73]],[[34.15,22.19],[34.32,22.23],[34.68,22.3],[34.42,22.25],[34.15,22.19]],[[34.86,22.68],[34.78,22.5],[34.83,22.61],[34.86,22.68]],[[52.44,41.77],[52.74,42.7],[51.28,43.15],[50.22,44.57],[51.56,44.51],[50.96,44.86],[51.42,45.39],[53.26,45.34],[52.73,45.55],[53.06,46.89],[51.19,47.12],[49.31,46.59],[48.72,45.81],[47.38,45.75],[46.68,44.53],[47.4,43.51],[47.54,43.87],[47.7,43.87],[47.46,43.02],[50.39,40.24],[49.5,40.16],[49.41,39.29],[48.93,39.12],[49.13,37.62],[51.91,36.58],[54.03,36.83],[53.98,38.92],[53.16,39.18],[53.09,39.4],[53.28,39.66],[53.74,39.52],[53.57,39.97],[52.91,40.02],[53.04,39.74],[52.7,40.31],[52.92,41.09],[53.72,40.63],[54.77,41.04],[53.82,42.12],[52.96,41.98],[52.88,41.05],[52.44,41.77]]],[[[-7.05,55.05],[-6.1,55.21],[-5.43,54.49],[-6.36,54.02],[-5.99,52.96],[-6.35,52.2],[-10.16,51.58],[-9.58,51.88],[-10.34,51.79],[-9.76,52.15],[-10.44,52.1],[-10.46,52.18],[-8.75,52.67],[-9.94,52.56],[-8.89,53.22],[-10.18,53.41],[-9.56,53.87],[-10.12,54.24],[-8.51,54.21],[-8.12,54.65],[-8.8,54.69],[-8.28,55.16],[-7.64,55.27],[-7.66,54.96],[-7.38,55.39],[-7.05,55.05]]],[[[-2.98,51.56],[-5.31,51.86],[-3.95,52.55],[-4.08,52.93],[-4.76,52.79],[-4.18,53.22],[-3.06,53.43],[-2.88,53.29],[-2.7,53.35],[-3.1,53.56],[-2.8,54.25],[-3.63,54.51],[-3.02,54.98],[-5.16,54.88],[-4.62,55.5],[-4.89,55.92],[-4.48,55.93],[-4.76,56.21],[-5.44,56.03],[-5.32,55.78],[-5.78,55.31],[-5.57,56.33],[-5,56.72],[-5.67,56.5],[-6.23,56.73],[-5.4,57.11],[-5.81,57.83],[-5.07,57.83],[-5.45,58.08],[-4.93,58.22],[-4.99,58.63],[-3.02,58.64],[-4.39,57.91],[-3.78,57.86],[-4.25,57.5],[-1.83,57.61],[-2.51,56.59],[-3.32,56.37],[-2.58,56.28],[-3.84,56.11],[-2.14,55.91],[-1.2,54.63],[-0.08,54.11],[-0.22,54.02],[0.13,53.64],[0.15,53.61],[0.13,53.57],[-0.26,53.74],[-0.64,53.73],[-0.73,53.7],[0.22,53.42],[0.01,52.89],[1.75,52.63],[1.58,52.08],[0.38,51.45],[1.45,51.38],[0.98,50.92],[-3.46,50.68],[-3.66,50.22],[-5.71,50.05],[-4.23,51.19],[-3.02,51.19],[-2.38,51.77],[-2.98,51.56]]],[[[8.66,42.26],[8.71,42.58],[9.46,42.99],[9.22,41.37],[8.66,42.26]]],[[[9.71,40.37],[9.57,39.15],[8.64,38.86],[8.19,40.96],[9.52,41.15],[9.71,40.37]]],[[[12.01,54.73],[11.95,54.57],[10.88,55.74],[12.62,56.04],[12.01,54.73]]],[[[15.58,38.2],[15.09,36.65],[12.43,37.8],[12.73,38.19],[15.58,38.2]]],[[[19.58,78.58],[17.1,77.05],[17.19,76.7],[16.34,76.57],[15.5,76.88],[16.53,77],[13.91,77.53],[16.22,77.44],[14.74,77.66],[17.12,77.78],[17.01,77.94],[13.96,77.72],[13.59,78.06],[14.33,77.96],[17.3,78.43],[15.44,78.46],[15.38,78.85],[13.01,78.2],[12.36,78.49],[13.2,78.54],[11.33,78.97],[12.51,78.91],[11.68,79.07],[12.12,79.3],[11.23,79.1],[10.68,79.54],[13.8,79.88],[12.45,79.57],[14.04,79.27],[13.88,79.54],[14.55,79.81],[16.44,78.91],[15.64,79.77],[16.29,80.07],[18.1,79.73],[17.65,79.37],[18.35,79.63],[18.95,79.16],[21.55,78.83],[19.58,78.58]]],[[[20.67,78.21],[20.15,78.48],[22.06,78.6],[22.27,78.27],[20.67,78.21]]],[[[23.98,77.59],[22.7,77.24],[22.41,77.42],[22.78,77.55],[20.83,77.54],[21.66,77.92],[20.9,78.11],[22.97,78.26],[24.41,77.87],[23.98,77.59]]],[[[26.29,35.12],[24.74,34.93],[23.52,35.31],[23.75,35.69],[26.29,35.12]]],[[[27.13,79.96],[24.05,79.19],[19.63,79.61],[21.15,79.57],[20.48,79.69],[21.85,79.71],[22.29,79.81],[18.78,79.72],[18.11,79.91],[18.79,79.97],[18.93,80.06],[17.78,80.14],[19.85,80.22],[19.66,80.51],[22.28,79.98],[22.78,80.52],[23.36,80.43],[23.12,80.39],[23.35,80.34],[23.06,80.25],[23.01,80.16],[23.12,80.12],[24.83,80.36],[27.13,79.96]]],[[[32.42,34.75],[32.28,35.09],[32.92,35.4],[34.59,35.69],[33.92,35.28],[34.1,34.97],[32.42,34.75]]],[[[44.45,-19.88],[43.92,-17.58],[44.44,-16.2],[46.47,-15.96],[46.33,-15.63],[47.23,-15.43],[47.44,-14.67],[47.43,-15.11],[48,-14.76],[47.9,-13.6],[48.78,-13.38],[48.73,-12.43],[49.28,-11.95],[50.48,-15.44],[50.17,-15.98],[49.64,-15.54],[49.84,-16.83],[47.13,-24.93],[45.49,-25.57],[44.03,-25],[43.22,-22.25],[44.45,-19.88]]],[[[46.05,80.45],[44.86,80.62],[47.54,80.86],[48.76,80.66],[46.05,80.45]]],[[[50.22,69.14],[49.25,68.78],[48.22,68.9],[48.91,69.51],[50.22,69.14]]],[[[50.99,80.55],[48.37,80.09],[46.62,80.3],[48.13,80.33],[47.38,80.45],[49.19,80.52],[49.68,80.72],[48.96,80.73],[50.24,80.93],[51.74,80.71],[50.99,80.55]]],[[[51.99,72.11],[52.87,72.35],[53.22,72.65],[52.38,72.73],[53.38,72.89],[53.32,73.22],[56.44,73.23],[55.12,72.45],[55.57,72.2],[55.23,71.93],[57.64,70.73],[53.46,70.82],[54.24,71.12],[51.53,71.57],[51.44,71.94],[51.99,72.11]]],[[[56.56,74.73],[55.73,75.08],[61.08,76.28],[64.09,76.31],[67.59,77.01],[69.03,76.71],[61.28,75.33],[59.15,74.44],[58.19,74.58],[58.73,74.24],[57.26,74.08],[57.75,73.73],[57.4,73.85],[56.56,73.89],[57.62,73.67],[56.74,73.68],[57.25,73.46],[56.73,73.24],[55.92,73.45],[55.92,73.31],[54.9,73.45],[54.25,73.33],[55.35,73.72],[53.63,73.76],[56.29,74.49],[55.53,74.65],[56.99,74.69],[56.56,74.73]]],[[[60.37,69.73],[59.02,69.86],[58.41,70.26],[59.02,70.48],[60.37,69.73]]],[[[62.07,80.61],[61.04,80.41],[59.22,80.65],[61.6,80.9],[62.07,80.61]]],[[[64.22,81.06],[65.47,80.93],[62.5,80.82],[63.14,80.97],[64.22,81.06]]],[[[70.38,-49.43],[68.79,-49.71],[68.79,-48.85],[69.59,-48.95],[69.28,-49.18],[69.58,-49.3],[70.48,-49.07],[70.38,-49.43]]],[[[71.32,73.17],[70.11,73.1],[69.87,73.04],[70.95,73.52],[71.75,73.04],[71.32,73.17]]],[[[81.79,6.68],[80.71,5.96],[80.09,6.14],[79.86,6.81],[79.7,8.22],[80.05,9.6],[80.61,9.45],[79.97,9.82],[80.44,9.58],[80.14,9.8],[80.25,9.83],[80.74,9.36],[81.37,8.48],[81.79,6.68]]],[[[92.27,79.68],[90.87,80.06],[93.81,79.9],[93.05,79.72],[92.27,79.68]]],[[[97.7,80.67],[97.13,80.67],[97.19,80.23],[94.53,80.13],[93.75,80],[91.42,80.31],[92.63,80.39],[91.89,80.46],[92.77,80.52],[93.27,80.8],[92.5,80.78],[93.05,81],[95.55,81.22],[95.1,81.27],[95.78,81.29],[97.97,80.72],[97.7,80.67]]],[[[98.93,78.81],[95.02,79.04],[92.85,79.56],[94.95,80.1],[100.08,79.78],[99.03,79.3],[99.93,78.95],[98.93,78.81]]],[[[100.81,2.25],[103.08,0.52],[102.44,0.24],[103.74,0.28],[103.35,-0.7],[104.38,-1.03],[104.88,-2.13],[104.53,-2.77],[104.88,-2.28],[106.03,-2.98],[105.73,-5.9],[105.28,-5.44],[105.16,-5.79],[104.55,-5.51],[104.56,-5.93],[102.31,-3.99],[99.75,-0.03],[99.14,0.26],[98.77,1.75],[97.74,2.28],[95.21,5.57],[97.53,5.24],[98.18,4.11],[100.95,1.83],[100.81,2.25]]],[[[104.65,78.36],[100.04,77.96],[99.27,78.04],[102.3,79.43],[103.15,79.31],[102.38,78.82],[103.62,79.17],[105.42,78.58],[104.65,78.36]]],[[[106.67,-2.7],[106.53,-3.11],[105.14,-1.97],[105.91,-1.49],[106.67,-2.7]]],[[[109.4,-7.75],[107.86,-7.75],[105.22,-6.77],[106.05,-5.88],[108.36,-6.25],[108.94,-6.85],[110.38,-6.98],[111.01,-6.42],[112.58,-6.87],[113.13,-7.73],[114.39,-7.76],[114.62,-8.74],[109.4,-7.75]]],[[[117.4,4.14],[117.83,3.7],[117.47,3.79],[117.51,3.61],[117.09,3.65],[117.03,3.59],[118.08,2.34],[117.74,2.04],[119.01,0.98],[117.89,1.11],[117.63,-0.77],[116.74,-1.02],[116.22,-1.79],[116.6,-2.22],[115.97,-3.61],[114.66,-4.18],[114.36,-3.21],[113.63,-3.46],[113.04,-2.92],[111.91,-3.57],[111.75,-2.74],[110.26,-3],[110.06,-1.35],[109.27,-0.85],[108.92,0.34],[109.34,1.94],[109.65,2.08],[109.93,1.69],[110.33,1.8],[110.68,1.45],[110.79,1.57],[111.14,1.37],[111.23,1.39],[111.34,1.33],[111.38,1.35],[111.01,1.58],[111.45,2.69],[113.01,3.16],[113.98,4.59],[115.37,4.91],[116.77,7.03],[116.78,6.59],[117.15,7],[117.73,6.45],[117.47,5.87],[118.02,6.06],[117.96,5.69],[119.28,5.34],[118.14,4.88],[118.56,4.36],[117.4,4.14]]],[[[110.84,19.54],[109.71,18.21],[108.68,18.52],[108.63,19.29],[109.3,19.92],[110.68,20.16],[110.84,19.54]]],[[[113.22,74.26],[112.77,74.09],[111.46,74.31],[113.41,74.44],[113.22,74.26]]],[[[119.18,-8.7],[118.41,-8.58],[118.16,-8.87],[117.39,-9.05],[116.73,-8.96],[117.2,-8.36],[118.28,-8.64],[117.92,-8.09],[119.18,-8.7]]],[[[119.54,10.37],[118.77,9.93],[117.19,8.34],[119.28,10.51],[119.22,10.94],[119.47,10.73],[119.5,11.42],[119.54,10.37]]],[[[119.82,-0.65],[119.63,0.01],[120.83,1.33],[123.93,0.83],[125.18,1.68],[124.32,0.4],[120.16,0.23],[120.07,-0.61],[120.68,-1.39],[121.62,-0.8],[123.45,-0.76],[121.3,-1.82],[122.9,-4.39],[121.55,-4.74],[121.63,-4.09],[120.87,-3.5],[121.08,-2.76],[120.58,-2.68],[120.2,-2.96],[120.46,-5.62],[119.72,-5.7],[119.35,-5.36],[119.5,-3.5],[118.93,-3.57],[118.76,-2.78],[119.82,-0.65]]],[[[120.63,-10.24],[120.16,-10.22],[118.94,-9.53],[119.96,-9.29],[120.63,-10.24]]],[[[121.46,12.52],[121.11,12.25],[120.32,13.49],[121.2,13.44],[121.46,12.52]]],[[[121.85,24.61],[121.4,23.15],[120.71,21.94],[120.06,23.04],[120.18,23.76],[121.46,25.26],[122.01,25],[121.85,24.61]]],[[[122.17,18.09],[122.53,17.09],[121.38,15.35],[121.73,14.19],[122.23,13.91],[122.68,14.35],[123.11,13.72],[123.33,14.1],[123.93,13.79],[123.53,13.61],[124.18,13.06],[124.05,12.54],[122.54,13.96],[122.59,13.17],[121.72,13.97],[120.66,13.78],[120.94,14.67],[120.59,14.9],[120.47,14.42],[120.08,14.8],[119.76,16.2],[119.89,16.39],[120.12,16.06],[120.37,16.07],[120.57,18.5],[122.22,18.52],[122.17,18.09]]],[[[122.88,-8.46],[121.65,-8.91],[119.81,-8.74],[120.42,-8.23],[122.29,-8.63],[122.88,-8.07],[122.88,-8.46]]],[[[123.12,11.34],[122.74,10.8],[121.95,10.43],[121.9,11.89],[123.12,11.34]]],[[[123.34,10.33],[123.32,9.26],[123.03,9.04],[122.4,9.84],[123.21,11],[123.58,10.83],[123.34,10.33]]],[[[124.73,-9.9],[123.47,-10.36],[123.69,-9.61],[125.14,-8.63],[127.31,-8.4],[124.73,-9.9]]],[[[125.09,10.23],[124.78,10.15],[124.3,11.54],[124.98,11.38],[125.09,10.23]]],[[[125.71,11.11],[125,11.29],[125.04,11.76],[124.28,12.57],[125.27,12.5],[125.71,11.11]]],[[[126.53,7.13],[126.2,6.28],[125.67,7.26],[125.37,5.57],[125.25,6.09],[124.2,6.22],[124.25,7.4],[123.7,7.81],[123.43,7.37],[122.65,7.79],[122.12,6.9],[121.9,7.14],[122.25,7.98],[123.4,8.72],[123.84,8.45],[123.68,7.96],[124.75,8.5],[124.81,9.01],[125.52,9.02],[125.46,9.82],[126.22,9.31],[126.53,7.13]]],[[[126.95,-3.77],[126.2,-3.63],[126.02,-3.17],[127.08,-3.19],[126.95,-3.77]]],[[[127.68,0.16],[127.4,1.21],[127.63,1.84],[128.05,2.2],[127.64,0.92],[128.72,1.57],[128.21,0.77],[128.9,0.22],[127.91,0.44],[128.44,-0.91],[127.68,0.16]]],[[[130.16,-31.57],[126.01,-32.27],[124.2,-33.04],[123.53,-33.94],[120,-33.93],[117.93,-35.12],[115.12,-34.36],[114.99,-33.52],[115.37,-33.63],[115.71,-33.27],[115.72,-31.77],[114.84,-29.11],[113.16,-26.15],[113.87,-26.52],[113.42,-25.73],[113.52,-25.51],[114.23,-26.32],[113.39,-24.41],[113.95,-21.95],[114.34,-22.49],[114.65,-21.84],[116.79,-20.53],[117.74,-20.66],[121.13,-19.52],[122.35,-18.12],[122.17,-17.26],[122.92,-16.42],[123.57,-17.6],[123.95,-16.83],[123.57,-16.18],[123.86,-16.43],[123.91,-16.22],[124.22,-16.4],[124.39,-16.35],[124.47,-16.39],[124.84,-16.43],[124.9,-16.4],[124.4,-16.33],[124.73,-15.81],[124.49,-16],[124.38,-15.53],[125.19,-15.52],[124.84,-15.14],[125.43,-15.14],[125.14,-14.74],[125.62,-14.22],[125.92,-14.64],[126.09,-13.89],[126.29,-14.23],[126.86,-13.74],[127.42,-13.94],[128.23,-14.72],[128.02,-15.5],[128.53,-14.75],[129.73,-15.19],[129.99,-14.73],[129.37,-14.33],[130.58,-12.4],[132.76,-12.13],[132.5,-11.48],[132.11,-11.52],[131.77,-11.31],[131.99,-11.13],[135.22,-12.3],[135.9,-11.76],[135.65,-12.2],[136.05,-12.06],[136.03,-12.47],[136.28,-12.42],[136.18,-12.17],[136.45,-11.94],[136.57,-11.9],[136.98,-12.35],[136.47,-13.24],[135.88,-13.33],[135.47,-14.95],[139.27,-17.35],[140.52,-17.63],[141.43,-16.06],[141.58,-12.99],[142.01,-12.71],[141.59,-12.54],[142.55,-10.69],[143.78,-14.4],[144.49,-14.16],[145.35,-14.94],[145.4,-16.44],[145.96,-16.87],[146.33,-18.96],[148.78,-20.24],[149.66,-22.49],[150.68,-22.36],[150.81,-23.51],[151.78,-24.02],[153.21,-25.93],[153.04,-27.19],[153.63,-28.66],[153.06,-31.08],[152.54,-32.44],[151.23,-33.53],[150.84,-35.08],[150.19,-35.73],[149.99,-37.5],[147.76,-37.99],[146.22,-38.71],[146.39,-39.14],[145.46,-38.23],[144.94,-38.51],[144.68,-38.33],[145.12,-38.16],[144.93,-37.87],[143.54,-38.86],[141.41,-38.41],[139.79,-37.27],[139.73,-36.37],[138.92,-35.58],[139.67,-36.23],[139.04,-35.6],[139.36,-35.38],[138.11,-35.62],[138.55,-34.78],[138.08,-34.13],[137.75,-35.13],[136.84,-35.26],[137.45,-34.92],[137.93,-33.62],[137.77,-32.52],[137.22,-33.65],[135.94,-34.53],[135.96,-35.01],[135.11,-34.6],[135.5,-34.61],[135.26,-34],[133.67,-32.11],[130.16,-31.57]]],[[[130.84,-3.85],[128.17,-3.07],[127.93,-3.55],[127.84,-3.17],[128.18,-2.86],[129.54,-2.78],[130.59,-3.13],[130.84,-3.85]]],[[[131.61,32.33],[131.34,31.37],[130.66,31],[130.78,31.71],[130.59,31.16],[130.12,31.41],[130.61,32.79],[130.24,33.19],[130.36,32.69],[129.74,32.57],[129.68,33.09],[130,32.85],[129.58,33.37],[130.69,33.94],[131.67,33.67],[131.51,33.27],[132.08,32.93],[131.61,32.33]]],[[[133.31,34.35],[132.35,34.35],[132.16,33.84],[132.06,33.78],[130.88,33.94],[130.96,34.43],[133.09,35.6],[136.07,35.66],[136.78,37.37],[137.35,37.51],[136.86,37.08],[137.3,36.76],[138.55,37.38],[140,39.33],[139.86,40.61],[140.34,41.27],[141.13,40.87],[140.91,41.54],[141.46,41.43],[142.06,39.47],[141.53,38.27],[140.97,38.17],[140.56,36.28],[140.88,35.72],[140.38,35.18],[139.93,34.91],[139.76,34.96],[140.1,35.57],[139.77,35.65],[138.84,34.6],[138.8,35.12],[138.23,34.59],[137.02,34.58],[137.34,34.73],[136.83,35.08],[136.52,34.68],[136.9,34.27],[135.76,33.43],[135.06,33.88],[135.41,34.69],[133.31,34.35]]],[[[134.55,33.73],[134.18,33.24],[133.29,33.36],[133,32.71],[132.42,33.44],[132.01,33.35],[133.94,34.38],[134.65,34.24],[134.55,33.73]]],[[[138.97,-7.85],[138.41,-8.4],[137.64,-8.43],[138.24,-7.46],[138.8,-7.37],[138.97,-7.85]]],[[[140.62,-8.81],[140.15,-7.88],[138.91,-8.29],[139.09,-7.56],[138.67,-7.2],[139.16,-7.24],[139.24,-7.15],[138.56,-6.92],[139.19,-6.97],[138.06,-5.4],[133.97,-3.85],[133.86,-2.92],[132.91,-4.09],[132.81,-3.28],[131.96,-2.79],[133.24,-2.42],[133.68,-2.72],[133.94,-2.11],[132.31,-2.27],[131.98,-1.54],[130.95,-1.43],[131.24,-0.82],[132.44,-0.35],[133.99,-0.73],[134.16,-2.32],[135.11,-3.36],[137.88,-1.47],[144.51,-3.82],[145.8,-4.84],[145.76,-5.48],[147.83,-6.34],[147.85,-6.69],[146.95,-6.93],[148.59,-9.06],[149.31,-9.02],[149.23,-9.49],[150.05,-9.68],[149.85,-10.01],[150.87,-10.22],[150.21,-10.7],[147.72,-10.1],[146.1,-8.08],[144.52,-7.5],[144.21,-7.8],[143.65,-7.44],[143.96,-7.97],[143.36,-7.9],[143.61,-8.24],[142.7,-8.26],[142.49,-8.33],[142.36,-8.17],[142.22,-8.17],[142.15,-8.22],[143.4,-8.77],[142.65,-9.33],[140.62,-8.81]]],[[[141.84,73.27],[139.97,73.33],[139.77,73.42],[142.05,73.92],[143.57,73.23],[141.84,73.27]]],[[[142.59,54.28],[143.36,52.87],[143.22,51.52],[144.76,48.64],[144.06,49.25],[143.26,49.39],[143.67,49.31],[143.01,49.12],[142.55,47.77],[143.63,46.37],[143.43,46.03],[143.37,46.56],[142.62,46.72],[142.09,45.9],[141.86,48.77],[142.27,51.11],[141.64,52.32],[141.77,53.37],[142.8,53.7],[142.28,54.3],[142.59,54.28]]],[[[144.7,75.4],[143.36,75.07],[142.49,75.38],[143,75.71],[142.34,75.73],[142.01,75.62],[142.44,75.2],[143.71,74.95],[139.13,74.65],[136.86,75.36],[137.42,75.37],[137.07,75.73],[137.74,75.75],[137.43,75.95],[138.43,76.06],[138.53,76.19],[139.05,76.24],[140.48,75.64],[141.62,76.01],[141.31,76.18],[145.39,75.52],[144.7,75.4]]],[[[145.7,43.32],[145.53,43.17],[145.14,43.13],[145.01,42.99],[143.89,42.84],[143.24,41.93],[141.82,42.6],[140.46,42.56],[140.29,42.26],[141.2,41.8],[140.21,41.4],[139.77,42.31],[140.52,43],[140.36,43.33],[141.42,43.32],[141.94,45.52],[143.73,44.11],[144.74,43.91],[145.34,44.35],[145.07,43.75],[145.7,43.32]]],[[[147.87,-43.2],[147.28,-42.78],[146.93,-43.61],[146.02,-43.55],[144.7,-40.66],[146.59,-41.18],[148.21,-40.84],[148.36,-42.2],[148.18,-41.95],[147.87,-43.2]]],[[[150.7,75.02],[148.17,74.8],[146.07,75.24],[146.44,75.6],[150.7,75.02]]],[[[152.31,-4.9],[152.1,-5.46],[150.42,-6.29],[148.33,-5.68],[149.91,-5.52],[150.11,-5.01],[150.16,-5.55],[150.92,-5.49],[151.68,-4.9],[151.54,-4.18],[152.41,-4.33],[152.31,-4.9]]],[[[153.08,-4.57],[152.9,-4.85],[152.29,-3.57],[150.76,-2.77],[150.81,-2.56],[152.82,-3.87],[153.08,-4.57]]],[[[155.88,-6.8],[155.19,-6.55],[154.7,-5.43],[155.81,-6.36],[155.88,-6.8]]],[[[167,-22.34],[164.95,-21.35],[163.99,-20.08],[165.22,-20.76],[167,-22.34]]],[[[167.41,-77.64],[166.17,-77.53],[166.83,-77.16],[169.36,-77.52],[167.41,-77.64]]],[[[172.75,-43.56],[172.68,-43.64],[173.06,-43.65],[173.09,-43.85],[171.35,-44.28],[170.78,-45.88],[169.64,-46.58],[166.47,-45.98],[168.37,-44.04],[170.86,-42.84],[172.11,-40.89],[172.6,-40.53],[172.84,-40.5],[173.1,-41.31],[173.99,-40.9],[173.77,-41.28],[174.33,-41.22],[172.75,-43.56]]],[[[177.1,-39.7],[175.78,-41.37],[174.61,-41.29],[175.18,-40.13],[173.76,-39.3],[174.59,-38.82],[174.98,-37.75],[174.56,-37.06],[174.95,-37.1],[174.5,-37.03],[174.18,-36.45],[174.43,-36.67],[174.52,-36.24],[173.91,-35.87],[174.08,-36.4],[172.7,-34.41],[174.35,-35.2],[174.88,-36.35],[174.68,-36.91],[175.61,-37.25],[175.35,-36.49],[175.53,-36.51],[176,-37.63],[177.13,-38.02],[178.55,-37.68],[177.91,-39.26],[177.06,-39.2],[177.1,-39.7]]],[[[178.59,-18.12],[177.89,-18.27],[177.26,-17.88],[178.19,-17.3],[178.59,-18.12]]],[[[179.13,70.88],[178.62,71.05],[180,71.54],[180,70.99],[179.13,70.88]]]]}}
